{
 "type": "FeatureCollection",
 "_doc": [
  "Jefferson's counties as map shapes: the real county boundary each",
  "one stands on, tagged with its Jefferson county and area. Built by",
  "scripts/build_jefferson_map.py; do not hand-edit.",
  "A null county/area means ground the state map claims that no",
  "Jefferson county has been drawn onto yet."
 ],
 "features": [
  {
   "type": "Feature",
   "properties": {
    "real_county": "Curry County, OR",
    "state": "OR",
    "fips": "41015",
    "county": "Weller",
    "area": "Harborline"
   },
   "geometry": {
    "type": "Polygon",
    "coordinates": [
     [
      [
       -124.479344,
       42.95497
      ],
      [
       -124.257111,
       42.954757
      ],
      [
       -124.141977,
       42.849334
      ],
      [
       -124.132985,
       42.666379
      ],
      [
       -123.812093,
       42.789433
      ],
      [
       -123.777322,
       42.798988
      ],
      [
       -123.727589,
       42.780135
      ],
      [
       -123.71619,
       42.784234
      ],
      [
       -123.831762,
       42.632561
      ],
      [
       -123.885746,
       42.504233
      ],
      [
       -124.008397,
       42.496352
      ],
      [
       -124.041983,
       42.387656
      ],
      [
       -124.025894,
       42.35913
      ],
      [
       -123.892189,
       42.352831
      ],
      [
       -123.839687,
       42.311532
      ],
      [
       -123.791241,
       42.236398
      ],
      [
       -123.856786,
       42.141132
      ],
      [
       -123.821472,
       41.995473
      ],
      [
       -124.086661,
       41.996869
      ],
      [
       -124.087827,
       41.996891
      ],
      [
       -124.100216,
       41.996842
      ],
      [
       -124.100921,
       41.996956
      ],
      [
       -124.211605,
       41.99846
      ],
      [
       -124.214213,
       42.005939
      ],
      [
       -124.270464,
       42.045553
      ],
      [
       -124.287374,
       42.046016
      ],
      [
       -124.299649,
       42.051736
      ],
      [
       -124.314289,
       42.067864
      ],
      [
       -124.34101,
       42.092929
      ],
      [
       -124.356229,
       42.114952
      ],
      [
       -124.357122,
       42.118016
      ],
      [
       -124.351535,
       42.129796
      ],
      [
       -124.351784,
       42.134965
      ],
      [
       -124.355696,
       42.141964
      ],
      [
       -124.361563,
       42.143767
      ],
      [
       -124.366028,
       42.152343
      ],
      [
       -124.366832,
       42.15845
      ],
      [
       -124.363389,
       42.158588
      ],
      [
       -124.360318,
       42.162272
      ],
      [
       -124.361009,
       42.180752
      ],
      [
       -124.367751,
       42.188321
      ],
      [
       -124.373175,
       42.190218
      ],
      [
       -124.374949,
       42.193129
      ],
      [
       -124.376215,
       42.196381
      ],
      [
       -124.375553,
       42.20882
      ],
      [
       -124.377762,
       42.218809
      ],
      [
       -124.383633,
       42.22716
      ],
      [
       -124.410982,
       42.250547
      ],
      [
       -124.411534,
       42.254115
      ],
      [
       -124.408514,
       42.260588
      ],
      [
       -124.405148,
       42.278107
      ],
      [
       -124.410556,
       42.307431
      ],
      [
       -124.429288,
       42.331746
      ],
      [
       -124.427222,
       42.33488
      ],
      [
       -124.425554,
       42.351874
      ],
      [
       -124.424066,
       42.377242
      ],
      [
       -124.424863,
       42.395426
      ],
      [
       -124.428068,
       42.420333
      ],
      [
       -124.434882,
       42.434916
      ],
      [
       -124.435105,
       42.440163
      ],
      [
       -124.422038,
       42.461226
      ],
      [
       -124.423084,
       42.478952
      ],
      [
       -124.421381,
       42.491737
      ],
      [
       -124.399065,
       42.539928
      ],
      [
       -124.390664,
       42.566593
      ],
      [
       -124.389977,
       42.574758
      ],
      [
       -124.400918,
       42.597518
      ],
      [
       -124.399421,
       42.618079
      ],
      [
       -124.401177,
       42.627192
      ],
      [
       -124.413119,
       42.657934
      ],
      [
       -124.416774,
       42.661594
      ],
      [
       -124.45074,
       42.675798
      ],
      [
       -124.451484,
       42.677787
      ],
      [
       -124.447487,
       42.68474
      ],
      [
       -124.448418,
       42.689909
      ],
      [
       -124.473864,
       42.732671
      ],
      [
       -124.491679,
       42.741789
      ],
      [
       -124.498473,
       42.741077
      ],
      [
       -124.499122,
       42.738606
      ],
      [
       -124.510017,
       42.734746
      ],
      [
       -124.513368,
       42.735068
      ],
      [
       -124.514669,
       42.736806
      ],
      [
       -124.516236,
       42.753632
      ],
      [
       -124.524439,
       42.789793
      ],
      [
       -124.536073,
       42.814175
      ],
      [
       -124.544179,
       42.822958
      ],
      [
       -124.552441,
       42.840568
      ],
      [
       -124.500141,
       42.917502
      ],
      [
       -124.480938,
       42.951495
      ],
      [
       -124.479344,
       42.95497
      ]
     ]
    ]
   }
  },
  {
   "type": "Feature",
   "properties": {
    "real_county": "Coos County, OR",
    "state": "OR",
    "fips": "41011",
    "county": "Bidwell",
    "area": "Harborline"
   },
   "geometry": {
    "type": "Polygon",
    "coordinates": [
     [
      [
       -123.812093,
       42.789433
      ],
      [
       -124.132985,
       42.666379
      ],
      [
       -124.141977,
       42.849334
      ],
      [
       -124.257111,
       42.954757
      ],
      [
       -124.479344,
       42.95497
      ],
      [
       -124.462619,
       42.99143
      ],
      [
       -124.456918,
       43.000315
      ],
      [
       -124.436198,
       43.071312
      ],
      [
       -124.432236,
       43.097383
      ],
      [
       -124.434451,
       43.115986
      ],
      [
       -124.424113,
       43.126859
      ],
      [
       -124.401726,
       43.184896
      ],
      [
       -124.395302,
       43.211101
      ],
      [
       -124.395607,
       43.223908
      ],
      [
       -124.38246,
       43.270167
      ],
      [
       -124.388891,
       43.290523
      ],
      [
       -124.393988,
       43.29926
      ],
      [
       -124.400404,
       43.302121
      ],
      [
       -124.402814,
       43.305872
      ],
      [
       -124.387642,
       43.325968
      ],
      [
       -124.373037,
       43.338953
      ],
      [
       -124.353332,
       43.342667
      ],
      [
       -124.341587,
       43.351337
      ],
      [
       -124.315012,
       43.388389
      ],
      [
       -124.286896,
       43.436296
      ],
      [
       -124.255609,
       43.502172
      ],
      [
       -124.233534,
       43.55713
      ],
      [
       -124.218876,
       43.610319
      ],
      [
       -123.875424,
       43.608254
      ],
      [
       -123.875529,
       43.515949
      ],
      [
       -123.816834,
       43.51603
      ],
      [
       -123.817707,
       43.431237
      ],
      [
       -123.764005,
       43.432237
      ],
      [
       -123.764,
       43.257935
      ],
      [
       -123.703798,
       43.257835
      ],
      [
       -123.701989,
       43.087288
      ],
      [
       -123.76063,
       43.083127
      ],
      [
       -123.762095,
       42.996036
      ],
      [
       -123.820798,
       42.995935
      ],
      [
       -123.812093,
       42.789433
      ]
     ]
    ]
   }
  },
  {
   "type": "Feature",
   "properties": {
    "real_county": "Douglas County, OR",
    "state": "OR",
    "fips": "41019",
    "county": "Antler",
    "area": "Timber Valley"
   },
   "geometry": {
    "type": "Polygon",
    "coordinates": [
     [
      [
       -124.218876,
       43.610319
      ],
      [
       -124.203028,
       43.667825
      ],
      [
       -124.204888,
       43.673976
      ],
      [
       -124.198275,
       43.689481
      ],
      [
       -124.193455,
       43.706085
      ],
      [
       -124.168392,
       43.808903
      ],
      [
       -124.158684,
       43.863504
      ],
      [
       -123.92551,
       43.865633
      ],
      [
       -123.925513,
       43.899167
      ],
      [
       -123.827622,
       43.945045
      ],
      [
       -123.703461,
       43.945131
      ],
      [
       -123.6193,
       43.92013
      ],
      [
       -123.579681,
       43.868138
      ],
      [
       -123.470506,
       43.810196
      ],
      [
       -123.348016,
       43.809165
      ],
      [
       -123.347659,
       43.780169
      ],
      [
       -123.137677,
       43.779666
      ],
      [
       -123.137064,
       43.60597
      ],
      [
       -123.107475,
       43.540004
      ],
      [
       -122.741771,
       43.544553
      ],
      [
       -122.740765,
       43.437142
      ],
      [
       -122.132044,
       43.440445
      ],
      [
       -122.010239,
       43.343249
      ],
      [
       -121.973841,
       43.261728
      ],
      [
       -122.037839,
       43.21725
      ],
      [
       -122.091539,
       43.07605
      ],
      [
       -122.282245,
       43.067547
      ],
      [
       -122.281856,
       42.996556
      ],
      [
       -122.400467,
       42.996426
      ],
      [
       -122.460053,
       42.939852
      ],
      [
       -122.677211,
       42.881341
      ],
      [
       -122.794793,
       42.779422
      ],
      [
       -123.151421,
       42.756069
      ],
      [
       -123.2299,
       42.702486
      ],
      [
       -123.365975,
       42.73204
      ],
      [
       -123.444177,
       42.703138
      ],
      [
       -123.715088,
       42.739735
      ],
      [
       -123.71619,
       42.784234
      ],
      [
       -123.727589,
       42.780135
      ],
      [
       -123.777322,
       42.798988
      ],
      [
       -123.812093,
       42.789433
      ],
      [
       -123.820798,
       42.995935
      ],
      [
       -123.762095,
       42.996036
      ],
      [
       -123.76063,
       43.083127
      ],
      [
       -123.701989,
       43.087288
      ],
      [
       -123.703798,
       43.257835
      ],
      [
       -123.764,
       43.257935
      ],
      [
       -123.764005,
       43.432237
      ],
      [
       -123.817707,
       43.431237
      ],
      [
       -123.816834,
       43.51603
      ],
      [
       -123.875529,
       43.515949
      ],
      [
       -123.875424,
       43.608254
      ],
      [
       -124.218876,
       43.610319
      ]
     ]
    ]
   }
  },
  {
   "type": "Feature",
   "properties": {
    "real_county": "Josephine County, OR",
    "state": "OR",
    "fips": "41033",
    "county": "Camas",
    "area": "Ashbury Metro"
   },
   "geometry": {
    "type": "Polygon",
    "coordinates": [
     [
      [
       -123.230024,
       42.287494
      ],
      [
       -123.230764,
       42.003845
      ],
      [
       -123.347562,
       41.999108
      ],
      [
       -123.49883,
       42.000525
      ],
      [
       -123.498896,
       42.000474
      ],
      [
       -123.501997,
       42.000527
      ],
      [
       -123.518075,
       42.000436
      ],
      [
       -123.624554,
       41.999837
      ],
      [
       -123.821472,
       41.995473
      ],
      [
       -123.856786,
       42.141132
      ],
      [
       -123.791241,
       42.236398
      ],
      [
       -123.839687,
       42.311532
      ],
      [
       -123.892189,
       42.352831
      ],
      [
       -124.025894,
       42.35913
      ],
      [
       -124.041983,
       42.387656
      ],
      [
       -124.008397,
       42.496352
      ],
      [
       -123.885746,
       42.504233
      ],
      [
       -123.831762,
       42.632561
      ],
      [
       -123.71619,
       42.784234
      ],
      [
       -123.715088,
       42.739735
      ],
      [
       -123.444177,
       42.703138
      ],
      [
       -123.365975,
       42.73204
      ],
      [
       -123.2299,
       42.702486
      ],
      [
       -123.229857,
       42.551783
      ],
      [
       -123.230024,
       42.287494
      ]
     ]
    ]
   }
  },
  {
   "type": "Feature",
   "properties": {
    "real_county": "Jackson County, OR",
    "state": "OR",
    "fips": "41029",
    "county": "Marlow",
    "area": "Ashbury Metro"
   },
   "geometry": {
    "type": "Polygon",
    "coordinates": [
     [
      [
       -123.230024,
       42.287494
      ],
      [
       -123.229857,
       42.551783
      ],
      [
       -123.2299,
       42.702486
      ],
      [
       -123.151421,
       42.756069
      ],
      [
       -122.794793,
       42.779422
      ],
      [
       -122.677211,
       42.881341
      ],
      [
       -122.460053,
       42.939852
      ],
      [
       -122.400467,
       42.996426
      ],
      [
       -122.281856,
       42.996556
      ],
      [
       -122.287446,
       42.127168
      ],
      [
       -122.290351,
       42.127092
      ],
      [
       -122.28974,
       42.122561
      ],
      [
       -122.289533,
       42.007764
      ],
      [
       -122.378193,
       42.009518
      ],
      [
       -122.501135,
       42.00846
      ],
      [
       -122.634739,
       42.004858
      ],
      [
       -123.001152,
       42.003
      ],
      [
       -123.045254,
       42.003049
      ],
      [
       -123.154908,
       42.008036
      ],
      [
       -123.230762,
       42.003845
      ],
      [
       -123.230764,
       42.003845
      ],
      [
       -123.230024,
       42.287494
      ]
     ]
    ]
   }
  },
  {
   "type": "Feature",
   "properties": {
    "real_county": "Klamath County, OR",
    "state": "OR",
    "fips": "41035",
    "county": "Tamarack",
    "area": "Cascade Divide"
   },
   "geometry": {
    "type": "Polygon",
    "coordinates": [
     [
      [
       -122.132044,
       43.440445
      ],
      [
       -122.130944,
       43.557149
      ],
      [
       -122.002675,
       43.615228
      ],
      [
       -121.332982,
       43.616629
      ],
      [
       -121.332708,
       43.43857
      ],
      [
       -121.348576,
       43.356691
      ],
      [
       -121.34988,
       42.746671
      ],
      [
       -120.88334,
       42.743883
      ],
      [
       -120.879481,
       41.993781
      ],
      [
       -121.035195,
       41.993323
      ],
      [
       -121.154347,
       41.996352
      ],
      [
       -121.334385,
       41.996655
      ],
      [
       -121.335734,
       41.996518
      ],
      [
       -121.340517,
       41.99622
      ],
      [
       -121.360253,
       41.99668
      ],
      [
       -121.376101,
       41.997026
      ],
      [
       -121.434977,
       41.997022
      ],
      [
       -121.43961,
       41.99708
      ],
      [
       -121.44754,
       41.997169
      ],
      [
       -121.52025,
       41.997983
      ],
      [
       -121.580865,
       41.998668
      ],
      [
       -121.675348,
       42.000351
      ],
      [
       -121.689159,
       42.000584
      ],
      [
       -121.705045,
       42.000766
      ],
      [
       -121.708199,
       42.000815
      ],
      [
       -122.001119,
       42.004017
      ],
      [
       -122.155408,
       42.007429
      ],
      [
       -122.156666,
       42.007384
      ],
      [
       -122.160438,
       42.007637
      ],
      [
       -122.161328,
       42.007637
      ],
      [
       -122.289527,
       42.007764
      ],
      [
       -122.289533,
       42.007764
      ],
      [
       -122.28974,
       42.122561
      ],
      [
       -122.290351,
       42.127092
      ],
      [
       -122.287446,
       42.127168
      ],
      [
       -122.281856,
       42.996556
      ],
      [
       -122.282245,
       43.067547
      ],
      [
       -122.091539,
       43.07605
      ],
      [
       -122.037839,
       43.21725
      ],
      [
       -121.973841,
       43.261728
      ],
      [
       -122.010239,
       43.343249
      ],
      [
       -122.132044,
       43.440445
      ]
     ]
    ]
   }
  },
  {
   "type": "Feature",
   "properties": {
    "real_county": "Lake County, OR",
    "state": "OR",
    "fips": "41037",
    "county": "Rimrock",
    "area": "Juniper Highlands"
   },
   "geometry": {
    "type": "Polygon",
    "coordinates": [
     [
      [
       -121.332982,
       43.616629
      ],
      [
       -120.378194,
       43.615452
      ],
      [
       -120.378194,
       43.611059
      ],
      [
       -120.368029,
       43.611472
      ],
      [
       -119.896365,
       43.610259
      ],
      [
       -119.896776,
       43.179006
      ],
      [
       -119.932439,
       43.178982
      ],
      [
       -119.943888,
       42.74632
      ],
      [
       -119.365284,
       42.749038
      ],
      [
       -119.360177,
       41.994384
      ],
      [
       -119.790087,
       41.997544
      ],
      [
       -119.986678,
       41.995842
      ],
      [
       -119.999168,
       41.99454
      ],
      [
       -120.286424,
       41.993058
      ],
      [
       -120.326005,
       41.993122
      ],
      [
       -120.692219,
       41.993677
      ],
      [
       -120.693941,
       41.993676
      ],
      [
       -120.879481,
       41.993781
      ],
      [
       -120.88334,
       42.743883
      ],
      [
       -121.34988,
       42.746671
      ],
      [
       -121.348576,
       43.356691
      ],
      [
       -121.332708,
       43.43857
      ],
      [
       -121.332982,
       43.616629
      ]
     ]
    ]
   }
  },
  {
   "type": "Feature",
   "properties": {
    "real_county": "Del Norte County, CA",
    "state": "CA",
    "fips": "06015",
    "county": "Ostrander",
    "area": "South Coast"
   },
   "geometry": {
    "type": "Polygon",
    "coordinates": [
     [
      [
       -124.065521,
       41.464739
      ],
      [
       -124.066057,
       41.470258
      ],
      [
       -124.075917,
       41.501757
      ],
      [
       -124.081427,
       41.511228
      ],
      [
       -124.081987,
       41.547761
      ],
      [
       -124.092404,
       41.553615
      ],
      [
       -124.101123,
       41.569192
      ],
      [
       -124.101403,
       41.578524
      ],
      [
       -124.097385,
       41.585251
      ],
      [
       -124.100961,
       41.602499
      ],
      [
       -124.114413,
       41.616768
      ],
      [
       -124.116037,
       41.628849
      ],
      [
       -124.120225,
       41.640354
      ],
      [
       -124.135552,
       41.657307
      ],
      [
       -124.139354,
       41.671652
      ],
      [
       -124.138373,
       41.678881
      ],
      [
       -124.143479,
       41.709284
      ],
      [
       -124.147412,
       41.717955
      ],
      [
       -124.154246,
       41.728801
      ],
      [
       -124.164716,
       41.740126
      ],
      [
       -124.17739,
       41.745756
      ],
      [
       -124.185363,
       41.739351
      ],
      [
       -124.19104,
       41.736079
      ],
      [
       -124.194953,
       41.736778
      ],
      [
       -124.203843,
       41.747035
      ],
      [
       -124.23972,
       41.7708
      ],
      [
       -124.242288,
       41.772034
      ],
      [
       -124.248704,
       41.771459
      ],
      [
       -124.255994,
       41.783014
      ],
      [
       -124.245027,
       41.7923
      ],
      [
       -124.230678,
       41.818681
      ],
      [
       -124.219592,
       41.846432
      ],
      [
       -124.208439,
       41.888192
      ],
      [
       -124.203402,
       41.940964
      ],
      [
       -124.204948,
       41.983441
      ],
      [
       -124.211605,
       41.99846
      ],
      [
       -124.100921,
       41.996956
      ],
      [
       -124.100216,
       41.996842
      ],
      [
       -124.087827,
       41.996891
      ],
      [
       -124.086661,
       41.996869
      ],
      [
       -123.821472,
       41.995473
      ],
      [
       -123.624554,
       41.999837
      ],
      [
       -123.518075,
       42.000436
      ],
      [
       -123.565442,
       41.903141
      ],
      [
       -123.642812,
       41.889353
      ],
      [
       -123.703768,
       41.829117
      ],
      [
       -123.660205,
       41.714055
      ],
      [
       -123.719089,
       41.595258
      ],
      [
       -123.612395,
       41.448954
      ],
      [
       -123.661363,
       41.38209
      ],
      [
       -123.770239,
       41.380776
      ],
      [
       -123.770551,
       41.464193
      ],
      [
       -124.065521,
       41.464739
      ]
     ]
    ]
   }
  },
  {
   "type": "Feature",
   "properties": {
    "real_county": "Siskiyou County, CA",
    "state": "CA",
    "fips": "06093",
    "county": "Cinder",
    "area": "Cascade Divide"
   },
   "geometry": {
    "type": "Polygon",
    "coordinates": [
     [
      [
       -122.289533,
       42.007764
      ],
      [
       -122.289527,
       42.007764
      ],
      [
       -122.161328,
       42.007637
      ],
      [
       -122.160438,
       42.007637
      ],
      [
       -122.156666,
       42.007384
      ],
      [
       -122.155408,
       42.007429
      ],
      [
       -122.001119,
       42.004017
      ],
      [
       -121.708199,
       42.000815
      ],
      [
       -121.705045,
       42.000766
      ],
      [
       -121.689159,
       42.000584
      ],
      [
       -121.675348,
       42.000351
      ],
      [
       -121.580865,
       41.998668
      ],
      [
       -121.52025,
       41.997983
      ],
      [
       -121.44754,
       41.997169
      ],
      [
       -121.446495,
       41.183484
      ],
      [
       -122.376123,
       41.182904
      ],
      [
       -122.498376,
       41.182675
      ],
      [
       -122.522636,
       41.213525
      ],
      [
       -122.50389,
       41.342985
      ],
      [
       -122.585241,
       41.359008
      ],
      [
       -122.653686,
       41.289237
      ],
      [
       -122.811342,
       41.202451
      ],
      [
       -122.961347,
       41.181525
      ],
      [
       -122.966949,
       41.08205
      ],
      [
       -122.897411,
       41.028475
      ],
      [
       -122.917529,
       40.99399
      ],
      [
       -123.036808,
       41.004058
      ],
      [
       -123.141338,
       41.079178
      ],
      [
       -123.23948,
       41.075763
      ],
      [
       -123.273402,
       41.122891
      ],
      [
       -123.408291,
       41.179944
      ],
      [
       -123.474085,
       41.366193
      ],
      [
       -123.661363,
       41.38209
      ],
      [
       -123.612395,
       41.448954
      ],
      [
       -123.719089,
       41.595258
      ],
      [
       -123.660205,
       41.714055
      ],
      [
       -123.703768,
       41.829117
      ],
      [
       -123.642812,
       41.889353
      ],
      [
       -123.565442,
       41.903141
      ],
      [
       -123.518075,
       42.000436
      ],
      [
       -123.501997,
       42.000527
      ],
      [
       -123.498896,
       42.000474
      ],
      [
       -123.49883,
       42.000525
      ],
      [
       -123.347562,
       41.999108
      ],
      [
       -123.230764,
       42.003845
      ],
      [
       -123.230762,
       42.003845
      ],
      [
       -123.154908,
       42.008036
      ],
      [
       -123.045254,
       42.003049
      ],
      [
       -123.001152,
       42.003
      ],
      [
       -122.634739,
       42.004858
      ],
      [
       -122.501135,
       42.00846
      ],
      [
       -122.378193,
       42.009518
      ],
      [
       -122.289533,
       42.007764
      ]
     ]
    ]
   }
  },
  {
   "type": "Feature",
   "properties": {
    "real_county": "Modoc County, CA",
    "state": "CA",
    "fips": "06049",
    "county": "Juniper",
    "area": "Juniper Highlands"
   },
   "geometry": {
    "type": "Polygon",
    "coordinates": [
     [
      [
       -121.44754,
       41.997169
      ],
      [
       -121.43961,
       41.99708
      ],
      [
       -121.434977,
       41.997022
      ],
      [
       -121.376101,
       41.997026
      ],
      [
       -121.360253,
       41.99668
      ],
      [
       -121.340517,
       41.99622
      ],
      [
       -121.335734,
       41.996518
      ],
      [
       -121.334385,
       41.996655
      ],
      [
       -121.154347,
       41.996352
      ],
      [
       -121.035195,
       41.993323
      ],
      [
       -120.879481,
       41.993781
      ],
      [
       -120.693941,
       41.993676
      ],
      [
       -120.692219,
       41.993677
      ],
      [
       -120.326005,
       41.993122
      ],
      [
       -120.286424,
       41.993058
      ],
      [
       -119.999168,
       41.99454
      ],
      [
       -119.999866,
       41.183974
      ],
      [
       -121.331786,
       41.183886
      ],
      [
       -121.446495,
       41.183484
      ],
      [
       -121.44754,
       41.997169
      ]
     ]
    ]
   }
  },
  {
   "type": "Feature",
   "properties": {
    "real_county": "Humboldt County, CA",
    "state": "CA",
    "fips": "06023",
    "county": "San Marcos",
    "area": "South Coast"
   },
   "geometry": {
    "type": "Polygon",
    "coordinates": [
     [
      [
       -123.544458,
       40.001923
      ],
      [
       -124.023938,
       40.001284
      ],
      [
       -124.035904,
       40.013319
      ],
      [
       -124.056408,
       40.024305
      ],
      [
       -124.065069,
       40.024785
      ],
      [
       -124.068908,
       40.021307
      ],
      [
       -124.072509,
       40.022657
      ],
      [
       -124.079983,
       40.029773
      ],
      [
       -124.080709,
       40.06611
      ],
      [
       -124.087086,
       40.078442
      ],
      [
       -124.110549,
       40.103765
      ],
      [
       -124.139952,
       40.11635
      ],
      [
       -124.170767,
       40.124207
      ],
      [
       -124.187874,
       40.130542
      ],
      [
       -124.214895,
       40.160902
      ],
      [
       -124.231095,
       40.171581
      ],
      [
       -124.258405,
       40.184277
      ],
      [
       -124.296497,
       40.208816
      ],
      [
       -124.320912,
       40.226617
      ],
      [
       -124.327691,
       40.23737
      ],
      [
       -124.34307,
       40.243979
      ],
      [
       -124.352715,
       40.250453
      ],
      [
       -124.363414,
       40.260974
      ],
      [
       -124.363634,
       40.276212
      ],
      [
       -124.347853,
       40.314634
      ],
      [
       -124.353124,
       40.331425
      ],
      [
       -124.356595,
       40.335016
      ],
      [
       -124.362796,
       40.350046
      ],
      [
       -124.365357,
       40.374855
      ],
      [
       -124.373599,
       40.392923
      ],
      [
       -124.379082,
       40.398828
      ],
      [
       -124.391496,
       40.407047
      ],
      [
       -124.402623,
       40.422105
      ],
      [
       -124.409591,
       40.438076
      ],
      [
       -124.408601,
       40.443201
      ],
      [
       -124.396642,
       40.462119
      ],
      [
       -124.38494,
       40.48982
      ],
      [
       -124.383224,
       40.499852
      ],
      [
       -124.387023,
       40.504954
      ],
      [
       -124.382816,
       40.519
      ],
      [
       -124.379096,
       40.522865
      ],
      [
       -124.363545,
       40.548698
      ],
      [
       -124.329404,
       40.61643
      ],
      [
       -124.315141,
       40.639526
      ],
      [
       -124.312558,
       40.641333
      ],
      [
       -124.289119,
       40.67963
      ],
      [
       -124.248406,
       40.735166
      ],
      [
       -124.228244,
       40.76939
      ],
      [
       -124.201921,
       40.805111
      ],
      [
       -124.176715,
       40.843618
      ],
      [
       -124.158322,
       40.876069
      ],
      [
       -124.137066,
       40.925732
      ],
      [
       -124.118147,
       40.989263
      ],
      [
       -124.112165,
       41.028173
      ],
      [
       -124.125448,
       41.048504
      ],
      [
       -124.132946,
       41.052482
      ],
      [
       -124.138217,
       41.054342
      ],
      [
       -124.142867,
       41.054032
      ],
      [
       -124.147216,
       41.052884
      ],
      [
       -124.148939,
       41.051467
      ],
      [
       -124.151266,
       41.051101
      ],
      [
       -124.153622,
       41.05355
      ],
      [
       -124.154028,
       41.059923
      ],
      [
       -124.154513,
       41.087159
      ],
      [
       -124.160556,
       41.099011
      ],
      [
       -124.159065,
       41.121957
      ],
      [
       -124.165414,
       41.129822
      ],
      [
       -124.163988,
       41.138675
      ],
      [
       -124.158539,
       41.143021
      ],
      [
       -124.149674,
       41.140845
      ],
      [
       -124.1438,
       41.144686
      ],
      [
       -124.122677,
       41.189726
      ],
      [
       -124.106986,
       41.229678
      ],
      [
       -124.106389,
       41.240682
      ],
      [
       -124.092284,
       41.287695
      ],
      [
       -124.079015,
       41.347135
      ],
      [
       -124.072294,
       41.374844
      ],
      [
       -124.063076,
       41.439579
      ],
      [
       -124.065521,
       41.464739
      ],
      [
       -123.770551,
       41.464193
      ],
      [
       -123.770239,
       41.380776
      ],
      [
       -123.661363,
       41.38209
      ],
      [
       -123.474085,
       41.366193
      ],
      [
       -123.408291,
       41.179944
      ],
      [
       -123.481457,
       40.914957
      ],
      [
       -123.560163,
       40.950257
      ],
      [
       -123.623826,
       40.929421
      ],
      [
       -123.55985,
       40.829584
      ],
      [
       -123.544059,
       40.739386
      ],
      [
       -123.544458,
       40.001923
      ]
     ]
    ]
   }
  },
  {
   "type": "Feature",
   "properties": {
    "real_county": "Trinity County, CA",
    "state": "CA",
    "fips": "06105",
    "county": "Sablewood",
    "area": "Gold Valley"
   },
   "geometry": {
    "type": "Polygon",
    "coordinates": [
     [
      [
       -123.065426,
       40.286971
      ],
      [
       -122.989015,
       40.250145
      ],
      [
       -122.989623,
       40.145496
      ],
      [
       -122.934013,
       39.978131
      ],
      [
       -123.544563,
       39.977015
      ],
      [
       -123.544458,
       40.001923
      ],
      [
       -123.544059,
       40.739386
      ],
      [
       -123.55985,
       40.829584
      ],
      [
       -123.623826,
       40.929421
      ],
      [
       -123.560163,
       40.950257
      ],
      [
       -123.481457,
       40.914957
      ],
      [
       -123.408291,
       41.179944
      ],
      [
       -123.273402,
       41.122891
      ],
      [
       -123.23948,
       41.075763
      ],
      [
       -123.141338,
       41.079178
      ],
      [
       -123.036808,
       41.004058
      ],
      [
       -122.917529,
       40.99399
      ],
      [
       -122.897411,
       41.028475
      ],
      [
       -122.966949,
       41.08205
      ],
      [
       -122.961347,
       41.181525
      ],
      [
       -122.811342,
       41.202451
      ],
      [
       -122.653686,
       41.289237
      ],
      [
       -122.585241,
       41.359008
      ],
      [
       -122.50389,
       41.342985
      ],
      [
       -122.522636,
       41.213525
      ],
      [
       -122.498376,
       41.182675
      ],
      [
       -122.445453,
       41.15793
      ],
      [
       -122.752266,
       40.689642
      ],
      [
       -122.695298,
       40.572514
      ],
      [
       -122.845954,
       40.505181
      ],
      [
       -122.903738,
       40.445071
      ],
      [
       -122.998682,
       40.418142
      ],
      [
       -123.068789,
       40.332233
      ],
      [
       -123.065426,
       40.286971
      ]
     ]
    ]
   }
  },
  {
   "type": "Feature",
   "properties": {
    "real_county": "Shasta County, CA",
    "state": "CA",
    "fips": "06089",
    "county": "Ferris",
    "area": "Gold Valley"
   },
   "geometry": {
    "type": "Polygon",
    "coordinates": [
     [
      [
       -123.065426,
       40.286971
      ],
      [
       -123.068789,
       40.332233
      ],
      [
       -122.998682,
       40.418142
      ],
      [
       -122.903738,
       40.445071
      ],
      [
       -122.845954,
       40.505181
      ],
      [
       -122.695298,
       40.572514
      ],
      [
       -122.752266,
       40.689642
      ],
      [
       -122.445453,
       41.15793
      ],
      [
       -122.498376,
       41.182675
      ],
      [
       -122.376123,
       41.182904
      ],
      [
       -121.446495,
       41.183484
      ],
      [
       -121.331786,
       41.183886
      ],
      [
       -121.319972,
       40.905886
      ],
      [
       -121.327826,
       40.445367
      ],
      [
       -121.497635,
       40.445591
      ],
      [
       -121.64633,
       40.434726
      ],
      [
       -121.806539,
       40.44495
      ],
      [
       -121.940989,
       40.415331
      ],
      [
       -122.010316,
       40.426558
      ],
      [
       -122.310412,
       40.371064
      ],
      [
       -122.445021,
       40.373398
      ],
      [
       -122.523997,
       40.3945
      ],
      [
       -122.651341,
       40.328288
      ],
      [
       -122.872769,
       40.348848
      ],
      [
       -122.918472,
       40.306758
      ],
      [
       -123.065426,
       40.286971
      ]
     ]
    ]
   }
  },
  {
   "type": "Feature",
   "properties": {
    "real_county": "Lassen County, CA",
    "state": "CA",
    "fips": "06035",
    "county": "Windrow",
    "area": "North Range"
   },
   "geometry": {
    "type": "Polygon",
    "coordinates": [
     [
      [
       -120.001319,
       39.72242
      ],
      [
       -120.001319,
       39.722416
      ],
      [
       -120.147149,
       39.707658
      ],
      [
       -120.110627,
       39.765779
      ],
      [
       -120.108761,
       39.93951
      ],
      [
       -120.201264,
       40.013474
      ],
      [
       -120.209641,
       40.086008
      ],
      [
       -120.341385,
       40.115243
      ],
      [
       -120.445892,
       40.176854
      ],
      [
       -120.510817,
       40.248945
      ],
      [
       -120.652158,
       40.307656
      ],
      [
       -120.764403,
       40.31601
      ],
      [
       -120.928582,
       40.191931
      ],
      [
       -121.061493,
       40.256417
      ],
      [
       -121.061417,
       40.446536
      ],
      [
       -121.327826,
       40.445367
      ],
      [
       -121.319972,
       40.905886
      ],
      [
       -121.331786,
       41.183886
      ],
      [
       -119.999866,
       41.183974
      ],
      [
       -119.999358,
       40.873101
      ],
      [
       -119.999232,
       40.867454
      ],
      [
       -119.999231,
       40.865899
      ],
      [
       -119.995926,
       40.499901
      ],
      [
       -119.996155,
       40.321838
      ],
      [
       -119.996155,
       40.32125
      ],
      [
       -119.996182,
       40.263532
      ],
      [
       -119.996183,
       40.262461
      ],
      [
       -119.997124,
       40.126363
      ],
      [
       -119.997234,
       40.091591
      ],
      [
       -119.997175,
       40.077245
      ],
      [
       -119.997291,
       40.071803
      ],
      [
       -120.000607,
       39.780779
      ],
      [
       -120.000502,
       39.779956
      ],
      [
       -120.001319,
       39.72242
      ]
     ]
    ]
   }
  },
  {
   "type": "Feature",
   "properties": {
    "real_county": "Plumas County, CA",
    "state": "CA",
    "fips": "06063",
    "county": null,
    "area": null
   },
   "geometry": {
    "type": "Polygon",
    "coordinates": [
     [
      [
       -121.076695,
       39.597264
      ],
      [
       -121.360516,
       39.84074
      ],
      [
       -121.430012,
       39.914833
      ],
      [
       -121.366818,
       40.086054
      ],
      [
       -121.436886,
       40.151905
      ],
      [
       -121.368395,
       40.21223
      ],
      [
       -121.345571,
       40.312667
      ],
      [
       -121.470395,
       40.350213
      ],
      [
       -121.497635,
       40.445591
      ],
      [
       -121.327826,
       40.445367
      ],
      [
       -121.061417,
       40.446536
      ],
      [
       -121.061493,
       40.256417
      ],
      [
       -120.928582,
       40.191931
      ],
      [
       -120.764403,
       40.31601
      ],
      [
       -120.652158,
       40.307656
      ],
      [
       -120.510817,
       40.248945
      ],
      [
       -120.445892,
       40.176854
      ],
      [
       -120.341385,
       40.115243
      ],
      [
       -120.209641,
       40.086008
      ],
      [
       -120.201264,
       40.013474
      ],
      [
       -120.108761,
       39.93951
      ],
      [
       -120.110627,
       39.765779
      ],
      [
       -120.147149,
       39.707658
      ],
      [
       -120.792484,
       39.709794
      ],
      [
       -120.873618,
       39.775875
      ],
      [
       -121.009477,
       39.639459
      ],
      [
       -121.050922,
       39.613801
      ],
      [
       -121.05267,
       39.612334
      ],
      [
       -121.076695,
       39.597264
      ]
     ]
    ]
   }
  },
  {
   "type": "Feature",
   "properties": {
    "real_county": "Colusa County, CA",
    "state": "CA",
    "fips": "06011",
    "county": null,
    "area": null
   },
   "geometry": {
    "type": "Polygon",
    "coordinates": [
     [
      [
       -121.908269,
       39.303878
      ],
      [
       -121.945509,
       39.180959
      ],
      [
       -121.847964,
       39.070817
      ],
      [
       -121.835488,
       38.924481
      ],
      [
       -122.337967,
       38.923945
      ],
      [
       -122.340172,
       38.924246
      ],
      [
       -122.492215,
       39.054092
      ],
      [
       -122.476083,
       39.172609
      ],
      [
       -122.680927,
       39.238726
      ],
      [
       -122.775043,
       39.311778
      ],
      [
       -122.78509,
       39.382975
      ],
      [
       -122.739062,
       39.383266
      ],
      [
       -122.136006,
       39.385494
      ],
      [
       -122.136161,
       39.414499
      ],
      [
       -121.890013,
       39.383864
      ],
      [
       -121.908269,
       39.303878
      ]
     ]
    ]
   }
  },
  {
   "type": "Feature",
   "properties": {
    "real_county": "Tehama County, CA",
    "state": "CA",
    "fips": "06103",
    "county": null,
    "area": null
   },
   "geometry": {
    "type": "Polygon",
    "coordinates": [
     [
      [
       -122.934013,
       39.978131
      ],
      [
       -122.989623,
       40.145496
      ],
      [
       -122.989015,
       40.250145
      ],
      [
       -123.065426,
       40.286971
      ],
      [
       -122.918472,
       40.306758
      ],
      [
       -122.872769,
       40.348848
      ],
      [
       -122.651341,
       40.328288
      ],
      [
       -122.523997,
       40.3945
      ],
      [
       -122.445021,
       40.373398
      ],
      [
       -122.310412,
       40.371064
      ],
      [
       -122.010316,
       40.426558
      ],
      [
       -121.940989,
       40.415331
      ],
      [
       -121.806539,
       40.44495
      ],
      [
       -121.64633,
       40.434726
      ],
      [
       -121.497635,
       40.445591
      ],
      [
       -121.470395,
       40.350213
      ],
      [
       -121.345571,
       40.312667
      ],
      [
       -121.368395,
       40.21223
      ],
      [
       -121.436886,
       40.151905
      ],
      [
       -121.586407,
       40.100522
      ],
      [
       -121.646032,
       39.982527
      ],
      [
       -121.703241,
       39.98423
      ],
      [
       -121.804041,
       39.884344
      ],
      [
       -122.044865,
       39.883771
      ],
      [
       -122.046471,
       39.797648
      ],
      [
       -122.937654,
       39.798156
      ],
      [
       -122.934013,
       39.978131
      ]
     ]
    ]
   }
  },
  {
   "type": "Feature",
   "properties": {
    "real_county": "Butte County, CA",
    "state": "CA",
    "fips": "06007",
    "county": null,
    "area": null
   },
   "geometry": {
    "type": "Polygon",
    "coordinates": [
     [
      [
       -121.076695,
       39.597264
      ],
      [
       -121.149907,
       39.526446
      ],
      [
       -121.305122,
       39.519585
      ],
      [
       -121.333427,
       39.468729
      ],
      [
       -121.407527,
       39.339754
      ],
      [
       -121.62376,
       39.295621
      ],
      [
       -121.908269,
       39.303878
      ],
      [
       -121.890013,
       39.383864
      ],
      [
       -121.856532,
       39.536904
      ],
      [
       -121.994021,
       39.533926
      ],
      [
       -121.950951,
       39.715004
      ],
      [
       -122.046471,
       39.797648
      ],
      [
       -122.044865,
       39.883771
      ],
      [
       -121.804041,
       39.884344
      ],
      [
       -121.703241,
       39.98423
      ],
      [
       -121.646032,
       39.982527
      ],
      [
       -121.586407,
       40.100522
      ],
      [
       -121.436886,
       40.151905
      ],
      [
       -121.366818,
       40.086054
      ],
      [
       -121.430012,
       39.914833
      ],
      [
       -121.360516,
       39.84074
      ],
      [
       -121.076695,
       39.597264
      ]
     ]
    ]
   }
  },
  {
   "type": "Feature",
   "properties": {
    "real_county": "Glenn County, CA",
    "state": "CA",
    "fips": "06021",
    "county": null,
    "area": null
   },
   "geometry": {
    "type": "Polygon",
    "coordinates": [
     [
      [
       -122.937654,
       39.798156
      ],
      [
       -122.046471,
       39.797648
      ],
      [
       -121.950951,
       39.715004
      ],
      [
       -121.994021,
       39.533926
      ],
      [
       -121.856532,
       39.536904
      ],
      [
       -121.890013,
       39.383864
      ],
      [
       -122.136161,
       39.414499
      ],
      [
       -122.136006,
       39.385494
      ],
      [
       -122.739062,
       39.383266
      ],
      [
       -122.735639,
       39.580668
      ],
      [
       -122.885352,
       39.580108
      ],
      [
       -122.892676,
       39.708898
      ],
      [
       -122.937654,
       39.798156
      ]
     ]
    ]
   }
  },
  {
   "type": "Feature",
   "properties": {
    "real_county": "Malheur County, OR",
    "state": "OR",
    "fips": "41045",
    "county": "Stagewater",
    "area": "Sage Plains"
   },
   "geometry": {
    "type": "Polygon",
    "coordinates": [
     [
      [
       -116.961535,
       43.918388
      ],
      [
       -116.979186,
       43.879973
      ],
      [
       -116.982482,
       43.872799
      ],
      [
       -116.996504,
       43.864714
      ],
      [
       -117.026634,
       43.808104
      ],
      [
       -117.026651,
       43.733935
      ],
      [
       -117.026841,
       43.732905
      ],
      [
       -117.026725,
       43.714815
      ],
      [
       -117.026825,
       43.706193
      ],
      [
       -117.026586,
       43.683001
      ],
      [
       -117.026623,
       43.680865
      ],
      [
       -117.026717,
       43.675523
      ],
      [
       -117.026661,
       43.664385
      ],
      [
       -117.026705,
       43.631659
      ],
      [
       -117.026905,
       43.62488
      ],
      [
       -117.027001,
       43.621032
      ],
      [
       -117.026937,
       43.617614
      ],
      [
       -117.026789,
       43.610669
      ],
      [
       -117.02676,
       43.601912
      ],
      [
       -117.026824,
       43.600357
      ],
      [
       -117.026889,
       43.596033
      ],
      [
       -117.026922,
       43.593632
      ],
      [
       -117.026774,
       43.578674
      ],
      [
       -117.026746,
       43.577526
      ],
      [
       -117.026652,
       43.025128
      ],
      [
       -117.026683,
       43.024876
      ],
      [
       -117.026253,
       42.807447
      ],
      [
       -117.026303,
       42.80717
      ],
      [
       -117.026331,
       42.807015
      ],
      [
       -117.026222,
       42.000252
      ],
      [
       -118.197189,
       41.996995
      ],
      [
       -118.195361,
       42.275869
      ],
      [
       -118.214725,
       42.276029
      ],
      [
       -118.231926,
       43.77898
      ],
      [
       -118.227435,
       44.039981
      ],
      [
       -118.23214,
       44.256083
      ],
      [
       -118.15234,
       44.299583
      ],
      [
       -117.971596,
       44.443328
      ],
      [
       -117.590992,
       44.444461
      ],
      [
       -117.485899,
       44.387696
      ],
      [
       -117.486153,
       44.30142
      ],
      [
       -117.197506,
       44.29728
      ],
      [
       -117.197777,
       44.295789
      ],
      [
       -117.196597,
       44.287529
      ],
      [
       -117.190107,
       44.273958
      ],
      [
       -117.170342,
       44.25889
      ],
      [
       -117.041144,
       44.243653
      ],
      [
       -117.03317,
       44.248192
      ],
      [
       -117.027558,
       44.248881
      ],
      [
       -116.98687,
       44.245477
      ],
      [
       -116.975905,
       44.242844
      ],
      [
       -116.902752,
       44.179467
      ],
      [
       -116.895757,
       44.171267
      ],
      [
       -116.894083,
       44.160191
      ],
      [
       -116.895931,
       44.154295
      ],
      [
       -116.897145,
       44.152537
      ],
      [
       -116.931719,
       44.102474
      ],
      [
       -116.935301,
       43.988616
      ],
      [
       -116.961535,
       43.918388
      ]
     ]
    ]
   }
  },
  {
   "type": "Feature",
   "properties": {
    "real_county": "Harney County, OR",
    "state": "OR",
    "fips": "41025",
    "county": "Emigrant",
    "area": "Sage Plains"
   },
   "geometry": {
    "type": "Polygon",
    "coordinates": [
     [
      [
       -118.197189,
       41.996995
      ],
      [
       -118.775869,
       41.992692
      ],
      [
       -118.777228,
       41.992671
      ],
      [
       -119.324182,
       41.994278
      ],
      [
       -119.360177,
       41.994384
      ],
      [
       -119.365284,
       42.749038
      ],
      [
       -119.943888,
       42.74632
      ],
      [
       -119.932439,
       43.178982
      ],
      [
       -119.896776,
       43.179006
      ],
      [
       -119.896365,
       43.610259
      ],
      [
       -119.898172,
       43.698323
      ],
      [
       -119.777526,
       43.698081
      ],
      [
       -119.775653,
       43.959068
      ],
      [
       -119.657577,
       43.959051
      ],
      [
       -118.816649,
       43.959975
      ],
      [
       -118.81625,
       44.047678
      ],
      [
       -118.586746,
       44.040078
      ],
      [
       -118.227435,
       44.039981
      ],
      [
       -118.231926,
       43.77898
      ],
      [
       -118.214725,
       42.276029
      ],
      [
       -118.195361,
       42.275869
      ],
      [
       -118.197189,
       41.996995
      ]
     ]
    ]
   }
  },
  {
   "type": "Feature",
   "properties": {
    "real_county": "Sierra County, CA",
    "state": "CA",
    "fips": "06091",
    "county": null,
    "area": null
   },
   "geometry": {
    "type": "Polygon",
    "coordinates": [
     [
      [
       -120.001319,
       39.722416
      ],
      [
       -120.003116,
       39.445113
      ],
      [
       -120.003117,
       39.445045
      ],
      [
       -120.505445,
       39.446117
      ],
      [
       -120.575059,
       39.52228
      ],
      [
       -120.654332,
       39.526889
      ],
      [
       -120.755729,
       39.452663
      ],
      [
       -121.022085,
       39.391558
      ],
      [
       -121.034406,
       39.514509
      ],
      [
       -121.009477,
       39.639459
      ],
      [
       -120.873618,
       39.775875
      ],
      [
       -120.792484,
       39.709794
      ],
      [
       -120.147149,
       39.707658
      ],
      [
       -120.001319,
       39.722416
      ]
     ]
    ]
   }
  },
  {
   "type": "Feature",
   "properties": {
    "real_county": "Nevada County, CA",
    "state": "CA",
    "fips": "06057",
    "county": null,
    "area": null
   },
   "geometry": {
    "type": "Polygon",
    "coordinates": [
     [
      [
       -121.279533,
       39.034618
      ],
      [
       -121.266911,
       39.271609
      ],
      [
       -121.127481,
       39.380237
      ],
      [
       -121.022085,
       39.391558
      ],
      [
       -120.755729,
       39.452663
      ],
      [
       -120.654332,
       39.526889
      ],
      [
       -120.575059,
       39.52228
      ],
      [
       -120.505445,
       39.446117
      ],
      [
       -120.003117,
       39.445045
      ],
      [
       -120.005318,
       39.316479
      ],
      [
       -120.645795,
       39.315155
      ],
      [
       -120.691606,
       39.303981
      ],
      [
       -120.857909,
       39.206235
      ],
      [
       -120.986348,
       39.102234
      ],
      [
       -121.068788,
       39.005177
      ],
      [
       -121.137397,
       39.037858
      ],
      [
       -121.279533,
       39.034618
      ]
     ]
    ]
   }
  },
  {
   "type": "Feature",
   "properties": {
    "real_county": "Washoe County, NV",
    "state": "NV",
    "fips": "32031",
    "county": "Galena",
    "area": "North Range"
   },
   "geometry": {
    "type": "Polygon",
    "coordinates": [
     [
      [
       -119.360177,
       41.994384
      ],
      [
       -119.324182,
       41.994278
      ],
      [
       -119.323955,
       41.414519
      ],
      [
       -119.304635,
       41.414695
      ],
      [
       -119.305713,
       41.234542
      ],
      [
       -119.331068,
       41.235118
      ],
      [
       -119.329791,
       40.960394
      ],
      [
       -119.309598,
       40.960378
      ],
      [
       -119.313037,
       40.518314
      ],
      [
       -119.338504,
       40.517805
      ],
      [
       -119.339296,
       39.998609
      ],
      [
       -119.225176,
       39.999385
      ],
      [
       -119.208543,
       39.809967
      ],
      [
       -119.170899,
       39.788288
      ],
      [
       -119.189342,
       39.65087
      ],
      [
       -119.25876,
       39.649213
      ],
      [
       -119.283637,
       39.621561
      ],
      [
       -119.279801,
       39.627112
      ],
      [
       -119.370604,
       39.586882
      ],
      [
       -119.467141,
       39.584502
      ],
      [
       -119.582952,
       39.547302
      ],
      [
       -119.621697,
       39.511602
      ],
      [
       -119.695643,
       39.520023
      ],
      [
       -119.685464,
       39.389575
      ],
      [
       -119.658501,
       39.331544
      ],
      [
       -119.712645,
       39.250871
      ],
      [
       -119.880787,
       39.165509
      ],
      [
       -120.004504,
       39.165599
      ],
      [
       -120.005746,
       39.22521
      ],
      [
       -120.005743,
       39.228664
      ],
      [
       -120.005414,
       39.313345
      ],
      [
       -120.005413,
       39.313848
      ],
      [
       -120.00532,
       39.31635
      ],
      [
       -120.005318,
       39.316479
      ],
      [
       -120.003117,
       39.445045
      ],
      [
       -120.003116,
       39.445113
      ],
      [
       -120.001319,
       39.722416
      ],
      [
       -120.001319,
       39.72242
      ],
      [
       -120.000502,
       39.779956
      ],
      [
       -120.000607,
       39.780779
      ],
      [
       -119.997291,
       40.071803
      ],
      [
       -119.997175,
       40.077245
      ],
      [
       -119.997234,
       40.091591
      ],
      [
       -119.997124,
       40.126363
      ],
      [
       -119.996183,
       40.262461
      ],
      [
       -119.996182,
       40.263532
      ],
      [
       -119.996155,
       40.32125
      ],
      [
       -119.996155,
       40.321838
      ],
      [
       -119.995926,
       40.499901
      ],
      [
       -119.999231,
       40.865899
      ],
      [
       -119.999232,
       40.867454
      ],
      [
       -119.999358,
       40.873101
      ],
      [
       -119.999866,
       41.183974
      ],
      [
       -119.999168,
       41.99454
      ],
      [
       -119.986678,
       41.995842
      ],
      [
       -119.790087,
       41.997544
      ],
      [
       -119.360177,
       41.994384
      ]
     ]
    ]
   }
  },
  {
   "type": "Feature",
   "properties": {
    "real_county": "Humboldt County, NV",
    "state": "NV",
    "fips": "32013",
    "county": "Lodestone",
    "area": "North Range"
   },
   "geometry": {
    "type": "Polygon",
    "coordinates": [
     [
      [
       -118.777228,
       41.992671
      ],
      [
       -118.775869,
       41.992692
      ],
      [
       -118.197189,
       41.996995
      ],
      [
       -117.026222,
       42.000252
      ],
      [
       -117.018294,
       41.999358
      ],
      [
       -117.018419,
       41.000254
      ],
      [
       -117.018664,
       40.643035
      ],
      [
       -117.246788,
       40.642445
      ],
      [
       -117.300597,
       40.526136
      ],
      [
       -117.301168,
       40.682348
      ],
      [
       -117.644399,
       40.684343
      ],
      [
       -117.64422,
       40.857824
      ],
      [
       -118.786738,
       40.855929
      ],
      [
       -118.786705,
       40.96085
      ],
      [
       -119.309598,
       40.960378
      ],
      [
       -119.329791,
       40.960394
      ],
      [
       -119.331068,
       41.235118
      ],
      [
       -119.305713,
       41.234542
      ],
      [
       -119.304635,
       41.414695
      ],
      [
       -119.323955,
       41.414519
      ],
      [
       -119.324182,
       41.994278
      ],
      [
       -118.777228,
       41.992671
      ]
     ]
    ]
   }
  },
  {
   "type": "Feature",
   "properties": {
    "real_county": "Pershing County, NV",
    "state": "NV",
    "fips": "32027",
    "county": null,
    "area": null
   },
   "geometry": {
    "type": "Polygon",
    "coordinates": [
     [
      [
       -119.225176,
       39.999385
      ],
      [
       -119.339296,
       39.998609
      ],
      [
       -119.338504,
       40.517805
      ],
      [
       -119.313037,
       40.518314
      ],
      [
       -119.309598,
       40.960378
      ],
      [
       -118.786705,
       40.96085
      ],
      [
       -118.786738,
       40.855929
      ],
      [
       -117.64422,
       40.857824
      ],
      [
       -117.644399,
       40.684343
      ],
      [
       -117.301168,
       40.682348
      ],
      [
       -117.300597,
       40.526136
      ],
      [
       -117.541749,
       40.001034
      ],
      [
       -117.7327,
       40.002466
      ],
      [
       -117.734782,
       40.002168
      ],
      [
       -117.736241,
       40.002464
      ],
      [
       -119.225176,
       39.999385
      ]
     ]
    ]
   }
  },
  {
   "type": "Feature",
   "properties": {
    "real_county": "Owyhee County, ID",
    "state": "ID",
    "fips": "16073",
    "county": "Vance",
    "area": "Halbrook Basin"
   },
   "geometry": {
    "type": "Polygon",
    "coordinates": [
     [
      [
       -117.026717,
       43.675523
      ],
      [
       -117.026623,
       43.680865
      ],
      [
       -116.841528,
       43.593168
      ],
      [
       -116.780671,
       43.477217
      ],
      [
       -116.511722,
       43.290253
      ],
      [
       -116.433111,
       43.296436
      ],
      [
       -116.385964,
       43.193445
      ],
      [
       -116.266168,
       43.112553
      ],
      [
       -116.012092,
       42.949917
      ],
      [
       -115.965669,
       42.943725
      ],
      [
       -115.926546,
       43.001526
      ],
      [
       -115.76991,
       42.938948
      ],
      [
       -115.641066,
       42.95536
      ],
      [
       -115.60373,
       42.937249
      ],
      [
       -115.44157,
       42.930904
      ],
      [
       -115.454314,
       42.767732
      ],
      [
       -115.037716,
       42.76848
      ],
      [
       -115.037694,
       42.749936
      ],
      [
       -115.038256,
       41.996025
      ],
      [
       -115.98688,
       41.998534
      ],
      [
       -116.012212,
       41.998035
      ],
      [
       -116.012219,
       41.998048
      ],
      [
       -116.018945,
       41.997722
      ],
      [
       -116.01896,
       41.997762
      ],
      [
       -116.030758,
       41.997383
      ],
      [
       -116.030754,
       41.997399
      ],
      [
       -116.03857,
       41.997413
      ],
      [
       -116.038602,
       41.99746
      ],
      [
       -116.160833,
       41.997508
      ],
      [
       -116.163931,
       41.997555
      ],
      [
       -116.463528,
       41.996547
      ],
      [
       -116.483094,
       41.996885
      ],
      [
       -116.485823,
       41.996861
      ],
      [
       -116.510452,
       41.997096
      ],
      [
       -116.586937,
       41.99737
      ],
      [
       -116.62677,
       41.99775
      ],
      [
       -117.018294,
       41.999358
      ],
      [
       -117.026222,
       42.000252
      ],
      [
       -117.026331,
       42.807015
      ],
      [
       -117.026303,
       42.80717
      ],
      [
       -117.026253,
       42.807447
      ],
      [
       -117.026683,
       43.024876
      ],
      [
       -117.026652,
       43.025128
      ],
      [
       -117.026746,
       43.577526
      ],
      [
       -117.026774,
       43.578674
      ],
      [
       -117.026922,
       43.593632
      ],
      [
       -117.026889,
       43.596033
      ],
      [
       -117.026824,
       43.600357
      ],
      [
       -117.02676,
       43.601912
      ],
      [
       -117.026789,
       43.610669
      ],
      [
       -117.026937,
       43.617614
      ],
      [
       -117.027001,
       43.621032
      ],
      [
       -117.026905,
       43.62488
      ],
      [
       -117.026705,
       43.631659
      ],
      [
       -117.026661,
       43.664385
      ],
      [
       -117.026717,
       43.675523
      ]
     ]
    ]
   }
  },
  {
   "type": "Feature",
   "properties": {
    "real_county": "Payette County, ID",
    "state": "ID",
    "fips": "16075",
    "county": null,
    "area": null
   },
   "geometry": {
    "type": "Polygon",
    "coordinates": [
     [
      [
       -116.961535,
       43.918388
      ],
      [
       -116.935301,
       43.988616
      ],
      [
       -116.931719,
       44.102474
      ],
      [
       -116.897145,
       44.152537
      ],
      [
       -116.452012,
       44.151417
      ],
      [
       -116.452526,
       44.065345
      ],
      [
       -116.532176,
       44.06606
      ],
      [
       -116.572245,
       43.980334
      ],
      [
       -116.712591,
       43.981259
      ],
      [
       -116.712672,
       43.807161
      ],
      [
       -116.85322,
       43.7926
      ],
      [
       -116.979186,
       43.879973
      ],
      [
       -116.961535,
       43.918388
      ]
     ]
    ]
   }
  },
  {
   "type": "Feature",
   "properties": {
    "real_county": "Canyon County, ID",
    "state": "ID",
    "fips": "16027",
    "county": "Halbrook",
    "area": "Halbrook Basin"
   },
   "geometry": {
    "type": "Polygon",
    "coordinates": [
     [
      [
       -117.026623,
       43.680865
      ],
      [
       -117.026586,
       43.683001
      ],
      [
       -117.026825,
       43.706193
      ],
      [
       -117.026725,
       43.714815
      ],
      [
       -117.026841,
       43.732905
      ],
      [
       -117.026651,
       43.733935
      ],
      [
       -117.026634,
       43.808104
      ],
      [
       -116.996504,
       43.864714
      ],
      [
       -116.982482,
       43.872799
      ],
      [
       -116.979186,
       43.879973
      ],
      [
       -116.85322,
       43.7926
      ],
      [
       -116.712672,
       43.807161
      ],
      [
       -116.707332,
       43.807279
      ],
      [
       -116.512559,
       43.807216
      ],
      [
       -116.513123,
       43.634183
      ],
      [
       -116.473492,
       43.634103
      ],
      [
       -116.473713,
       43.459216
      ],
      [
       -116.513364,
       43.45932
      ],
      [
       -116.511722,
       43.290253
      ],
      [
       -116.780671,
       43.477217
      ],
      [
       -116.841528,
       43.593168
      ],
      [
       -117.026623,
       43.680865
      ]
     ]
    ]
   }
  }
 ]
}
