{
"type": "FeatureCollection",
"name": "jefferson_state_boundary",
"crs": { "type": "name", "properties": { "name": "urn:ogc:def:crs:OGC:1.3:CRS84" } },
"features": [
{ "type": "Feature", "properties": { "name": "State of Jefferson", "abbr": "JF", "population": 17641269, "places": 272 }, "geometry": { "type": "Polygon", "coordinates": [ [ [ -123.78243679807801, 39.620357906248096 ], [ -123.782322, 39.621486 ], [ -123.784080140734005, 39.638225345879796 ], [ -123.784451233873, 39.641758542218597 ], [ -123.78534470353901, 39.650265311600698 ], [ -123.785701012794007, 39.653657749842793 ], [ -123.78636, 39.659932 ], [ -123.792659, 39.684122 ], [ -123.792883539049996, 39.684506022571 ], [ -123.793629622166009, 39.685782026706093 ], [ -123.793637226598008, 39.685795032344899 ], [ -123.797294176500003, 39.692049406821695 ], [ -123.804793479439013, 39.704875245336204 ], [ -123.805634775666007, 39.706314089670499 ], [ -123.807292870971011, 39.709149881583393 ], [ -123.808208, 39.710715 ], [ -123.811066750924013, 39.711996562687602 ], [ -123.818719206332005, 39.715427117352299 ], [ -123.818730481832006, 39.715432172098502 ], [ -123.824744, 39.718128 ], [ -123.829418394269013, 39.722940649630004 ], [ -123.829545, 39.723071 ], [ -123.830047890292008, 39.724921459992295 ], [ -123.830359950465009, 39.726069732041495 ], [ -123.830698650835004, 39.727316030676498 ], [ -123.830955358156004, 39.728260623635101 ], [ -123.831058, 39.728638309639699 ], [ -123.831413057158002, 39.729944795519494 ], [ -123.831599, 39.730629 ], [ -123.83421781336601, 39.736731067560299 ], [ -123.834990435239007, 39.738531345092092 ], [ -123.835092, 39.738768 ], [ -123.838089, 39.752409 ], [ -123.838078835079003, 39.752666890221597 ], [ -123.838018370178006, 39.754200921447399 ], [ -123.837997777267006, 39.754723376114796 ], [ -123.837944044955009, 39.756086597473093 ], [ -123.837866175949003, 39.758062181440394 ], [ -123.837801659435002, 39.759699004561199 ], [ -123.837567026182001, 39.765651792603698 ], [ -123.837493705949001, 39.767511971428299 ], [ -123.83715, 39.776232 ], [ -123.837667526248012, 39.780025954226595 ], [ -123.837876847645006, 39.7815604769714 ], [ -123.83904929407602, 39.790155612221099 ], [ -123.839166554710005, 39.791015242968903 ], [ -123.839496886320006, 39.793436884414803 ], [ -123.839797, 39.795637 ], [ -123.845766663612011, 39.813873102552698 ], [ -123.847847981800001, 39.820231104340898 ], [ -123.848260956781004, 39.821492658525401 ], [ -123.851556304183006, 39.831559271500396 ], [ -123.851714, 39.832041 ], [ -123.853764, 39.8341 ], [ -123.858004564626, 39.835833648902103 ], [ -123.860264785056003, 39.836757683556201 ], [ -123.865342011774004, 39.838833380851504 ], [ -123.869214159398012, 39.840416411667 ], [ -123.870631986029011, 39.840996054662298 ], [ -123.875384810187015, 39.842939128076104 ], [ -123.87754232183201, 39.8438211728092 ], [ -123.881458, 39.845422 ], [ -123.883546011127009, 39.846824790349395 ], [ -123.884753529671016, 39.847636038593798 ], [ -123.884874056233016, 39.847717012060002 ], [ -123.887462384824005, 39.849455931130898 ], [ -123.893161431270002, 39.853284726510999 ], [ -123.893846616885014, 39.853745055364499 ], [ -123.896860329936999, 39.855769760851295 ], [ -123.900560100593012, 39.858255381021301 ], [ -123.903519844821005, 39.860243828585894 ], [ -123.907664, 39.863028 ], [ -123.911957379023008, 39.870081244357202 ], [ -123.912709185565006, 39.871316326380203 ], [ -123.913175032755007, 39.872081628964303 ], [ -123.913304911702014, 39.872294996557798 ], [ -123.915142, 39.875313 ], [ -123.915227865674012, 39.876013572115198 ], [ -123.915425000871011, 39.877621984603003 ], [ -123.915853, 39.881114 ], [ -123.919400445611004, 39.888257626737399 ], [ -123.919546012029997, 39.888550759394093 ], [ -123.929107705508002, 39.907805506801594 ], [ -123.930047, 39.909697 ], [ -123.931801509703007, 39.91059 ], [ -123.932693050298013, 39.911043771073203 ], [ -123.93554403433501, 39.912494848112097 ], [ -123.941242142071005, 39.915395037377898 ], [ -123.948053795909004, 39.918861992770005 ], [ -123.949155065008995, 39.919422510221196 ], [ -123.954952, 39.922373 ], [ -123.959801523351999, 39.931981389640697 ], [ -123.962655, 39.937635 ], [ -123.980031, 39.962458 ], [ -123.982797611665006, 39.964308408597894 ], [ -123.984332176814007, 39.965334780525097 ], [ -123.991033864249999, 39.969817108207501 ], [ -123.993807533445008, 39.971672237133099 ], [ -123.995514473441006, 39.972813899508694 ], [ -123.99586, 39.973045 ], [ -124.010962295816, 39.9882340385996 ], [ -124.011920235055015, 39.989197479936799 ], [ -124.012586799472999, 39.989867872888794 ], [ -124.017127946721004, 39.994435103042996 ], [ -124.023938149489013, 40.001284421449498 ], [ -124.02656333036002, 40.003924680524896 ], [ -124.030704210688015, 40.008089344751596 ], [ -124.033927513500998, 40.011331161190697 ], [ -124.035904, 40.013319 ], [ -124.036256958082006, 40.013508114196604 ], [ -124.041048355850009, 40.016075335025803 ], [ -124.043284444648009, 40.017273426692796 ], [ -124.056408, 40.024305 ], [ -124.057369130108015, 40.0243582666495 ], [ -124.065069, 40.024785 ], [ -124.066856003235998, 40.023166037443296 ], [ -124.068908, 40.021307 ], [ -124.070198663199008, 40.021790864292896 ], [ -124.071274170163008, 40.022194067403696 ], [ -124.071971321131002, 40.022455426416798 ], [ -124.072509, 40.022657 ], [ -124.073349797437004, 40.0234575237575 ], [ -124.074661580663005, 40.024706473373897 ], [ -124.075666, 40.025662781643007 ], [ -124.079983, 40.029773 ], [ -124.080036769454011, 40.032464213012901 ], [ -124.080138843293, 40.037573107101004 ], [ -124.080161089389009, 40.038686545611 ], [ -124.080215445022006, 40.041407097489 ], [ -124.080309313722012, 40.046105316420196 ], [ -124.080709, 40.06611 ], [ -124.084161767524009, 40.0727870470607 ], [ -124.085787867968008, 40.075931640234899 ], [ -124.086521942795002, 40.077351212254101 ], [ -124.087086, 40.078442 ], [ -124.108909642205006, 40.101995684164898 ], [ -124.110549, 40.103765 ], [ -124.112101115470011, 40.1044293326595 ], [ -124.122256132646001, 40.108775858223503 ], [ -124.122493734678002, 40.108877556063099 ], [ -124.132481959287006, 40.113152691481503 ], [ -124.138757012686, 40.115838524458496 ], [ -124.139952, 40.11635 ], [ -124.143148157026005, 40.117164934471894 ], [ -124.153232765323011, 40.119736239595795 ], [ -124.161763321335016, 40.121911302993098 ], [ -124.161852279339996, 40.121933984902697 ], [ -124.170767, 40.124207 ], [ -124.172665985123004, 40.124910225039898 ], [ -124.176944002957001, 40.126494444539098 ], [ -124.187028975395009, 40.130229073661496 ], [ -124.187874, 40.130542 ], [ -124.188353741437012, 40.131081023352692 ], [ -124.200178100881004, 40.144366525471 ], [ -124.203460560544997, 40.148054600501794 ], [ -124.210674302562992, 40.156159748633094 ], [ -124.214895, 40.160902 ], [ -124.219220528380006, 40.1637533776277 ], [ -124.231095, 40.171581 ], [ -124.254690916391013, 40.182550379513202 ], [ -124.258405, 40.184277 ], [ -124.283850609251004, 40.2006691507247 ], [ -124.296497, 40.208816 ], [ -124.297219401324, 40.209342703500702 ], [ -124.302203505234999, 40.212976618459798 ], [ -124.304268352960008, 40.214482100923199 ], [ -124.306739796882013, 40.2162840330653 ], [ -124.308926852511007, 40.217878617429598 ], [ -124.31958758586201, 40.225651368377598 ], [ -124.320912, 40.226617 ], [ -124.32535095781401, 40.2336581732364 ], [ -124.327691, 40.23737 ], [ -124.328363348062013, 40.237658936103799 ], [ -124.329082863787008, 40.237968142126597 ], [ -124.34307, 40.243979 ], [ -124.343635411152007, 40.244358520145298 ], [ -124.349131357412006, 40.248047556546197 ], [ -124.352715, 40.250453 ], [ -124.358483224201009, 40.2561252578572 ], [ -124.363414, 40.260974 ], [ -124.363555028210001, 40.270742126668196 ], [ -124.363565184571996, 40.271445593197299 ], [ -124.363612035862005, 40.2746906839118 ], [ -124.363634, 40.276212 ], [ -124.362219171391999, 40.279656683150094 ], [ -124.359255729444001, 40.286871775128596 ], [ -124.355840081604001, 40.295187852773196 ], [ -124.349616550145015, 40.310340284539599 ], [ -124.347853, 40.314634 ], [ -124.351463929770006, 40.326136774001199 ], [ -124.351929204117994, 40.327618925697699 ], [ -124.35245388693501, 40.329290325654497 ], [ -124.352639029354009, 40.329880104891899 ], [ -124.352652627050006, 40.329923420943402 ], [ -124.353124, 40.331425 ], [ -124.356217724483002, 40.334625681249697 ], [ -124.356595, 40.335016 ], [ -124.362796, 40.350046 ], [ -124.365357, 40.374855 ], [ -124.366085837201993, 40.376452746975204 ], [ -124.373599, 40.392923 ], [ -124.375266312662006, 40.394718637655799 ], [ -124.379082, 40.398828 ], [ -124.381332140122012, 40.400317761693302 ], [ -124.384438717378004, 40.402374549068192 ], [ -124.386595949156018, 40.4038027984625 ], [ -124.391496, 40.407047 ], [ -124.402623, 40.422105 ], [ -124.409591, 40.438076 ], [ -124.409189506391016, 40.440154439138396 ], [ -124.409102204962011, 40.440606378352193 ], [ -124.408601, 40.443201 ], [ -124.407752263949007, 40.444543619667797 ], [ -124.406993631930007, 40.445743703332901 ], [ -124.402515124060997, 40.452828276612699 ], [ -124.401978776306009, 40.453676727723504 ], [ -124.401753573348003, 40.454032977372798 ], [ -124.396642, 40.462119 ], [ -124.395597999078007, 40.464590361265898 ], [ -124.388450223367002, 40.4815105915674 ], [ -124.388247664543016, 40.481990089257295 ], [ -124.387967611093998, 40.482653032394005 ], [ -124.38494, 40.48982 ], [ -124.383224, 40.499852 ], [ -124.383783759235001, 40.500603748254598 ], [ -124.383857240495004, 40.500702432484097 ], [ -124.384389065489003, 40.501416665471602 ], [ -124.387023, 40.504954 ], [ -124.384081095339994, 40.5147761993938 ], [ -124.383943920140013, 40.515234189141502 ], [ -124.383337744576011, 40.517258040332898 ], [ -124.382816, 40.519 ], [ -124.381204330396002, 40.520674490059498 ], [ -124.379096, 40.522865 ], [ -124.363545, 40.548698 ], [ -124.359494142553004, 40.556734456945598 ], [ -124.358134188710011, 40.559432456234099 ], [ -124.356443663439009, 40.562786272983097 ], [ -124.334803100521, 40.605718776646299 ], [ -124.330537121380004, 40.614182011442601 ], [ -124.329404, 40.61643 ], [ -124.319610625890007, 40.632288358581697 ], [ -124.318851257627017, 40.6335179995692 ], [ -124.318752996079013, 40.633677113970101 ], [ -124.316623185373004, 40.637125905112697 ], [ -124.315141, 40.639526 ], [ -124.312558, 40.641333 ], [ -124.312211093525008, 40.641899810754595 ], [ -124.299495784765, 40.662675363448201 ], [ -124.298833716388003, 40.6637571174751 ], [ -124.293133520044009, 40.673070672634005 ], [ -124.289119, 40.67963 ], [ -124.285003142462017, 40.685244380276799 ], [ -124.278488768480003, 40.694130541293198 ], [ -124.278097844446009, 40.694663794975497 ], [ -124.278042471102012, 40.694739328934197 ], [ -124.277628252342012, 40.695304358606002 ], [ -124.269795808870995, 40.7059884786811 ], [ -124.268416719168997, 40.707869674508295 ], [ -124.267745499653003, 40.708785275103502 ], [ -124.248780203766998, 40.734655554186595 ], [ -124.248726066694999, 40.734729401764902 ], [ -124.248406, 40.735166 ], [ -124.235265145974012, 40.757471951204394 ], [ -124.235176398583008, 40.757622595520296 ], [ -124.234484936496003, 40.758796318290393 ], [ -124.234146295264011, 40.759371145069203 ], [ -124.233565844565007, 40.760356431485299 ], [ -124.231690338177998, 40.763540011021199 ], [ -124.228244, 40.76939 ], [ -124.215859941794008, 40.786195491136603 ], [ -124.211805175693016, 40.791697914867399 ], [ -124.211617057299009, 40.791953196452496 ], [ -124.211308606577006, 40.792371772155896 ], [ -124.206043616835998, 40.799516501044394 ], [ -124.201921, 40.805111 ], [ -124.197511195957006, 40.811847821562203 ], [ -124.196781506350007, 40.812962562404998 ], [ -124.195764985487003, 40.814515493012102 ], [ -124.195401160162007, 40.815071305984695 ], [ -124.187295813136004, 40.827453778329598 ], [ -124.187059294171007, 40.8278151064181 ], [ -124.186504591571008, 40.828662521042304 ], [ -124.185160483347005, 40.830715904179797 ], [ -124.184840147056008, 40.831205279310794 ], [ -124.184104044532006, 40.832329817114903 ], [ -124.183569417924005, 40.833146561811198 ], [ -124.183466824503, 40.833303292940499 ], [ -124.182229754878009, 40.835193154086397 ], [ -124.182070578069002, 40.835436327195403 ], [ -124.181298664714006, 40.836615572913097 ], [ -124.181040657255011, 40.837009728798293 ], [ -124.176715, 40.843618 ], [ -124.173777376562015, 40.8488008857816 ], [ -124.173612611588013, 40.849091582686704 ], [ -124.173370165764013, 40.849519332887901 ], [ -124.173068740708004, 40.850051140883998 ], [ -124.172616995007999, 40.850848161474801 ], [ -124.171405572284002, 40.852985489741194 ], [ -124.171144175516005, 40.853446675329899 ], [ -124.168701271808004, 40.857756720902195 ], [ -124.167941941004003, 40.859096417738904 ], [ -124.165682564074018, 40.863082664722299 ], [ -124.165021207702011, 40.864249504043698 ], [ -124.164748060877017, 40.864731420404297 ], [ -124.16439274390801, 40.865358310576802 ], [ -124.163649941010007, 40.8666688470217 ], [ -124.162513079374008, 40.868674626228902 ], [ -124.162063831290013, 40.869467240244504 ], [ -124.161239695111007, 40.870921274014094 ], [ -124.158322, 40.876069 ], [ -124.154747627559999, 40.884420244752896 ], [ -124.141106718513015, 40.916291173716303 ], [ -124.141064957335999, 40.916388745474897 ], [ -124.139721237922004, 40.919528241959497 ], [ -124.137066, 40.925732 ], [ -124.134699403688003, 40.933679155255398 ], [ -124.131735518648014, 40.943632037568101 ], [ -124.131178650617997, 40.945502029789097 ], [ -124.130232318002996, 40.948679864629298 ], [ -124.128059494089996, 40.955976321949002 ], [ -124.127941123088007, 40.956373818017902 ], [ -124.127397251083011, 40.958200168902501 ], [ -124.125943647184997, 40.963081447470003 ], [ -124.122340371716007, 40.975181436572697 ], [ -124.119891936209015, 40.983403412161294 ], [ -124.119634691599003, 40.984267253133297 ], [ -124.118766252314003, 40.987183518064697 ], [ -124.118432745872013, 40.988303450288392 ], [ -124.118147, 40.989263 ], [ -124.117859342461003, 40.991134072359898 ], [ -124.112636203300994, 41.025108051747793 ], [ -124.112165705497006, 41.0281684110847 ], [ -124.112165, 41.028173 ], [ -124.112201545592995, 41.028228936794896 ], [ -124.114279274145005, 41.031409114404596 ], [ -124.120329765723994, 41.040670015127006 ], [ -124.122548682160001, 41.044066295339704 ], [ -124.125065345821994, 41.047918308356593 ], [ -124.12529773242801, 41.048274 ], [ -124.125342, 41.048341756079203 ], [ -124.125448, 41.048504 ], [ -124.127080103048016, 41.0493699040602 ], [ -124.128272872734001, 41.050002722016202 ], [ -124.128762405367013, 41.050262441091498 ], [ -124.132945945186009, 41.0524819970937 ], [ -124.138181469373009, 41.054329822840394 ], [ -124.138216531622007, 41.054342197709701 ], [ -124.142867051186002, 41.0540321642737 ], [ -124.147216, 41.052884 ], [ -124.147366255589006, 41.052760429384797 ], [ -124.147529935988004, 41.0526258181687 ], [ -124.148257438955, 41.052027517702498 ], [ -124.148939, 41.051467 ], [ -124.150936624685002, 41.051152805485692 ], [ -124.151266, 41.051101 ], [ -124.153622, 41.05355 ], [ -124.154028290930015, 41.059922817581601 ], [ -124.154165319065001, 41.067622535823503 ], [ -124.154510149437016, 41.086998824626299 ], [ -124.154513, 41.087159 ], [ -124.155180280753001, 41.088467722734499 ], [ -124.155763028484017, 41.089610652754402 ], [ -124.156555375242007, 41.091164664632004 ], [ -124.159508742854015, 41.096957038111398 ], [ -124.160273220087007, 41.098456390115096 ], [ -124.160273921313006, 41.098457765414004 ], [ -124.160556, 41.099011 ], [ -124.160538408514, 41.0992817271921 ], [ -124.160200094383001, 41.104488270488794 ], [ -124.159747993359005, 41.111445956669193 ], [ -124.159548923239015, 41.1145095803925 ], [ -124.159524481112015, 41.114885736681899 ], [ -124.159349964840004, 41.1175714847694 ], [ -124.159155494290005, 41.120564322612701 ], [ -124.159065, 41.121957 ], [ -124.165090813121012, 41.129421643281702 ], [ -124.165311787109005, 41.129695380944298 ], [ -124.165414, 41.129822 ], [ -124.163988, 41.138675 ], [ -124.161721063733012, 41.140483057445095 ], [ -124.159479846741007, 41.142270601773397 ], [ -124.158539, 41.143021 ], [ -124.158399699679009, 41.142986807388702 ], [ -124.158339562150005, 41.142972046050502 ], [ -124.149674, 41.140845 ], [ -124.1438, 41.144686 ], [ -124.125631346233007, 41.183426527656195 ], [ -124.122677, 41.189726 ], [ -124.120231649625012, 41.1959522850157 ], [ -124.112152119406019, 41.216524166433501 ], [ -124.109790710425003, 41.222536722140902 ], [ -124.106986, 41.229678 ], [ -124.106888228166014, 41.231480146172501 ], [ -124.106791382345008, 41.233265223904098 ], [ -124.106788474593998, 41.233318820052496 ], [ -124.106404564759004, 41.240395107859797 ], [ -124.106389, 41.240682 ], [ -124.099183754883001, 41.264697610684095 ], [ -124.098471975971009, 41.267070022025798 ], [ -124.096171207823005, 41.274738651088001 ], [ -124.09524095723701, 41.277839244551899 ], [ -124.093631068019008, 41.283205123448596 ], [ -124.093226682418006, 41.284552970330004 ], [ -124.092901803177995, 41.2856358166758 ], [ -124.092477544506011, 41.287049901961097 ], [ -124.092284, 41.287695 ], [ -124.079015, 41.347135 ], [ -124.076656519297003, 41.356858425353295 ], [ -124.075491683340005, 41.3616607523171 ], [ -124.07536631241301, 41.362177625256003 ], [ -124.073454761348003, 41.370058471627004 ], [ -124.072294, 41.374844 ], [ -124.071459099356005, 41.380707234239104 ], [ -124.071308, 41.3817683556086 ], [ -124.068708037097011, 41.4000270449692 ], [ -124.068555875109993, 41.401095628851301 ], [ -124.068166793190002, 41.403828023961495 ], [ -124.064236761757996, 41.431427349706603 ], [ -124.064195788252007, 41.431715093244897 ], [ -124.063946745524007, 41.433464038895202 ], [ -124.063601282160008, 41.435890115139401 ], [ -124.063565659128002, 41.436140284050794 ], [ -124.063162535113008, 41.438971292197792 ], [ -124.063139893662012, 41.439130295699897 ], [ -124.063076, 41.439579 ], [ -124.063128411529007, 41.4401183939245 ], [ -124.063145313845013, 41.440292344333201 ], [ -124.06534471815101, 41.462927542150503 ], [ -124.065520778074998, 41.464739465137498 ], [ -124.065656042002004, 41.466131535581397 ], [ -124.065701869459005, 41.4666031694547 ], [ -124.065892131553014, 41.468561254244904 ], [ -124.065996320428994, 41.469633515406194 ], [ -124.066057, 41.470258 ], [ -124.066458802385, 41.471541607841196 ], [ -124.068322602132014, 41.477495748636002 ], [ -124.068849446092017, 41.479178817388195 ], [ -124.069457419333006, 41.481121063749391 ], [ -124.069635223841004, 41.481689082430499 ], [ -124.075917, 41.501757 ], [ -124.077105988512002, 41.503800722358498 ], [ -124.079939004620016, 41.508670322278093 ], [ -124.081426327083008, 41.511226843339898 ], [ -124.081427, 41.511228 ], [ -124.081473477474006, 41.514260074203904 ], [ -124.081630384029012, 41.524496265617699 ], [ -124.081854568360995, 41.539121490961598 ], [ -124.081894487526995, 41.541725717541702 ], [ -124.081894699095997, 41.541739519804601 ], [ -124.081960822981998, 41.546053276816799 ], [ -124.081986633243005, 41.547737073668401 ], [ -124.081987, 41.547761 ], [ -124.081988312727006, 41.547761737707901 ], [ -124.082883571261007, 41.548264842580693 ], [ -124.083386555495011, 41.548547502627201 ], [ -124.084337068853003, 41.549081658832996 ], [ -124.087906034443009, 41.551087296211193 ], [ -124.089663751814001, 41.552075073641298 ], [ -124.091600971694007, 41.553163725381097 ], [ -124.092404, 41.553615 ], [ -124.093597324156008, 41.555746942926397 ], [ -124.094910544778003, 41.558093087855099 ], [ -124.095357587754009, 41.558891756100692 ], [ -124.095967664693006, 41.5599816939921 ], [ -124.096349457630993, 41.560663789255202 ], [ -124.098077294418999, 41.563750670050396 ], [ -124.098890765812016, 41.565203983948393 ], [ -124.100181593425006, 41.567510122466196 ], [ -124.100409012558003, 41.567916419958898 ], [ -124.101052583726002, 41.569066197235799 ], [ -124.101123, 41.569192 ], [ -124.101303749177006, 41.575216111843005 ], [ -124.101316648110014, 41.575646014852396 ], [ -124.101323069150013, 41.575860018960498 ], [ -124.10140288160801, 41.5785200541482 ], [ -124.101403, 41.578524 ], [ -124.099505241507003, 41.581701257686397 ], [ -124.098619605124, 41.583184004313495 ], [ -124.098363905913004, 41.583612100030194 ], [ -124.097673196052995, 41.584768497548197 ], [ -124.097385, 41.585251 ], [ -124.097616231903999, 41.5855226458402 ], [ -124.100127963272016, 41.588473369187604 ], [ -124.101209039164999, 41.589743391896796 ], [ -124.102583071183005, 41.591357572619295 ], [ -124.103606593353007, 41.592559982558903 ], [ -124.105100471053007, 41.594314955190001 ], [ -124.100961, 41.602499 ], [ -124.101340845533002, 41.602901915247195 ], [ -124.101798970480004, 41.603387864166898 ], [ -124.10260403690701, 41.604241825871895 ], [ -124.104150024402998, 41.605881708088795 ], [ -124.105177724906014, 41.6069718254302 ], [ -124.11259221749701, 41.614836633249297 ], [ -124.114413, 41.616768 ], [ -124.114424437641006, 41.616853085065799 ], [ -124.114881470964008, 41.620252973960703 ], [ -124.115376678615007, 41.623936843193299 ], [ -124.115624161743995, 41.625777879947499 ], [ -124.115657387582004, 41.626025048264502 ], [ -124.115926777795011, 41.628029052671998 ], [ -124.116037, 41.628849 ], [ -124.116130220970007, 41.629105090557594 ], [ -124.116204909366999, 41.629310269643298 ], [ -124.119707848292009, 41.638933314611805 ], [ -124.120225, 41.640354 ], [ -124.122599736295996, 41.642980665650299 ], [ -124.122977453190998, 41.643398453510194 ], [ -124.135552, 41.657307 ], [ -124.137977725512002, 41.666459296810196 ], [ -124.138550702227008, 41.668621146094196 ], [ -124.139354, 41.671652 ], [ -124.139329755459002, 41.671830658297004 ], [ -124.138851765802997, 41.6753529694303 ], [ -124.138373, 41.678881 ], [ -124.138662573346011, 41.680605226096901 ], [ -124.138680928538008, 41.680714519652497 ], [ -124.138698111559009, 41.680816833668899 ], [ -124.143446600127007, 41.709091079253504 ], [ -124.143472872960999, 41.709247517358001 ], [ -124.143479, 41.709284 ], [ -124.143793, 41.709976269005899 ], [ -124.144982658850012, 41.712599084131796 ], [ -124.145240879891006, 41.713168378473497 ], [ -124.146559193057996, 41.716074834986401 ], [ -124.147076846661008, 41.717216094685199 ], [ -124.147312603635001, 41.717735862984895 ], [ -124.147412, 41.717955 ], [ -124.147594482046003, 41.718244610808796 ], [ -124.147765832432, 41.718516554954903 ], [ -124.148008608480012, 41.718901856243797 ], [ -124.149742522037016, 41.721653689202697 ], [ -124.149906859471002, 41.721914503339598 ], [ -124.150466869136011, 41.722803274897196 ], [ -124.154246, 41.728801 ], [ -124.154373438619004, 41.7289388454979 ], [ -124.155661702667004, 41.730332311623698 ], [ -124.164716, 41.740126 ], [ -124.164906076411, 41.740210435079199 ], [ -124.165568888324003, 41.740504867071301 ], [ -124.175595932893998, 41.744959045778501 ], [ -124.177029752487002, 41.745595972108198 ], [ -124.17739, 41.745756 ], [ -124.181022763604005, 41.7428376692732 ], [ -124.181555981342001, 41.742409316130292 ], [ -124.185363, 41.739351 ], [ -124.189897898723004, 41.736737262353195 ], [ -124.19104, 41.736079 ], [ -124.191046097061005, 41.736080089150398 ], [ -124.193197558156996, 41.736464416087799 ], [ -124.193287086793006, 41.7364804090641 ], [ -124.194773265428012, 41.736745893057503 ], [ -124.194953, 41.736778 ], [ -124.199866564348014, 41.742447114681696 ], [ -124.203843, 41.747035 ], [ -124.207220738223, 41.749272420878796 ], [ -124.210557970946013, 41.751483010829297 ], [ -124.214729625800004, 41.754246323749094 ], [ -124.215062425874009, 41.754466771215604 ], [ -124.223350023372006, 41.759956493169298 ], [ -124.226630135823001, 41.762129246532005 ], [ -124.231084835825015, 41.765080049150598 ], [ -124.231563076194007, 41.765396836573792 ], [ -124.237754443067999, 41.769498010968398 ], [ -124.238217534719013, 41.769804763848903 ], [ -124.238319444318009, 41.7698722689804 ], [ -124.23972, 41.7708 ], [ -124.242288, 41.772034 ], [ -124.243441961981006, 41.771930582272496 ], [ -124.24503821815901, 41.771787526271595 ], [ -124.248225761282015, 41.771501859610801 ], [ -124.248704, 41.771459 ], [ -124.248891938862002, 41.771756892120003 ], [ -124.249096124804012, 41.772080536640594 ], [ -124.250581514608001, 41.774434950794401 ], [ -124.25062, 41.774495951989003 ], [ -124.250925724609004, 41.774980540171896 ], [ -124.250950889828005, 41.775020428252496 ], [ -124.253025287013998, 41.778308447386195 ], [ -124.253723221307013, 41.779414706748597 ], [ -124.255046574130006, 41.781512284508601 ], [ -124.255114868459017, 41.781620534299194 ], [ -124.255668639739994, 41.7824982883673 ], [ -124.255779200646998, 41.782673532712096 ], [ -124.255994, 41.783014 ], [ -124.255203881126008, 41.783683011020997 ], [ -124.253216467472001, 41.785365797852997 ], [ -124.245027, 41.7923 ], [ -124.230678, 41.818681 ], [ -124.227012563148008, 41.827856495047001 ], [ -124.219866694671012, 41.845744371297094 ], [ -124.219789844922005, 41.845936745225295 ], [ -124.219774, 41.845976408984299 ], [ -124.219592, 41.846432 ], [ -124.219446260850006, 41.846977688773002 ], [ -124.209808, 41.883066075136696 ], [ -124.208439, 41.888192 ], [ -124.208139878533004, 41.891325857067393 ], [ -124.204695403410994, 41.9274131791176 ], [ -124.203934904231005, 41.935380831037094 ], [ -124.203814352316002, 41.936643837910999 ], [ -124.203696822127014, 41.937875186563396 ], [ -124.203657919114008, 41.938282768417501 ], [ -124.203652, 41.938344782211701 ], [ -124.203595886144001, 41.938932679847603 ], [ -124.203593965949011, 41.938952797484603 ], [ -124.203402, 41.940964 ], [ -124.203908431881004, 41.9548784288543 ], [ -124.203983307592011, 41.956935670501899 ], [ -124.204041941343007, 41.958546657462499 ], [ -124.204948, 41.983441 ], [ -124.206802791453001, 41.987625634644104 ], [ -124.209482573019997, 41.993671547121401 ], [ -124.211501990103997, 41.998227597172004 ], [ -124.211605, 41.99846 ], [ -124.214213, 42.005939 ], [ -124.238297007248008, 42.022899833818492 ], [ -124.244806479042012, 42.027484040599305 ], [ -124.26582168607402, 42.042283713696499 ], [ -124.270094481163014, 42.045292771396198 ], [ -124.270464, 42.045553 ], [ -124.271610395112006, 42.045584388582895 ], [ -124.277985610011001, 42.045758943550297 ], [ -124.278395121971002, 42.045770156089397 ], [ -124.282310979181005, 42.0458773732325 ], [ -124.285084814625009, 42.045953321535897 ], [ -124.287374, 42.046016 ], [ -124.289535363522006, 42.047023168989497 ], [ -124.291553955311997, 42.047963808096597 ], [ -124.291628828370008, 42.047998698026497 ], [ -124.293589805037016, 42.048912489190499 ], [ -124.294673422407996, 42.049417441643399 ], [ -124.299649, 42.051736 ], [ -124.312627447804999, 42.066033568729296 ], [ -124.314289, 42.067864 ], [ -124.315484303604009, 42.068985226182896 ], [ -124.31955072416801, 42.072799635502896 ], [ -124.319781263345007, 42.0730158873072 ], [ -124.32047913641, 42.073670510576598 ], [ -124.34101, 42.092929 ], [ -124.356229, 42.114952 ], [ -124.357122, 42.118016 ], [ -124.351535, 42.129796 ], [ -124.351784, 42.134965 ], [ -124.355696, 42.141964 ], [ -124.361563, 42.143767 ], [ -124.366028, 42.152343 ], [ -124.366832, 42.15845 ], [ -124.363389, 42.158588 ], [ -124.360318, 42.162272 ], [ -124.361009, 42.180752 ], [ -124.367751, 42.188321 ], [ -124.373175, 42.190218 ], [ -124.374949, 42.193129 ], [ -124.376215, 42.196381 ], [ -124.375553, 42.20882 ], [ -124.377762, 42.218809 ], [ -124.381312630263011, 42.223859470673297 ], [ -124.383633, 42.22716 ], [ -124.410982, 42.250547 ], [ -124.411534, 42.254115 ], [ -124.408514, 42.260588 ], [ -124.405190780525999, 42.277884340452701 ], [ -124.405148, 42.278107 ], [ -124.410556, 42.307431 ], [ -124.420556548757006, 42.3204121735548 ], [ -124.425263929884011, 42.322025868903005 ], [ -124.427782403407008, 42.3188574667289 ], [ -124.433063073697014, 42.323975654856099 ], [ -124.431438252069015, 42.329093842983298 ], [ -124.4292872, 42.331746 ], [ -124.429288, 42.331746 ], [ -124.427222, 42.33488 ], [ -124.425554, 42.351874 ], [ -124.424074592842004, 42.3770955059084 ], [ -124.424066, 42.377242 ], [ -124.424863, 42.395426 ], [ -124.424947433376005, 42.396082156662402 ], [ -124.425411267960015, 42.399686751971593 ], [ -124.427358734310999, 42.414821087201894 ], [ -124.428068, 42.420333 ], [ -124.428607141672998, 42.4214868454672 ], [ -124.430016868573006, 42.424503876195004 ], [ -124.434882, 42.434916 ], [ -124.435105, 42.440163 ], [ -124.422038, 42.461226 ], [ -124.423084, 42.478952 ], [ -124.421411856082003, 42.491505352901498 ], [ -124.421383505606002, 42.491718189564196 ], [ -124.421381, 42.491737 ], [ -124.421342374285999, 42.491820411534299 ], [ -124.406125251900008, 42.5246815132042 ], [ -124.399065, 42.539928 ], [ -124.390664, 42.566593 ], [ -124.389977, 42.574758 ], [ -124.400918, 42.597518 ], [ -124.399421, 42.618079 ], [ -124.401177, 42.627192 ], [ -124.405006058595006, 42.637049052362499 ], [ -124.413119, 42.657934 ], [ -124.416774, 42.661594 ], [ -124.45074, 42.675798 ], [ -124.451484, 42.677787 ], [ -124.447873851780997, 42.684067050179301 ], [ -124.447487, 42.68474 ], [ -124.448418, 42.689909 ], [ -124.473864, 42.732671 ], [ -124.478583368567016, 42.735086447801798 ], [ -124.491243228921007, 42.7415659654393 ], [ -124.491679, 42.741789 ], [ -124.491910213078995, 42.741764769250494 ], [ -124.492646745402013, 42.741687581877301 ], [ -124.493465449217013, 42.741601783067004 ], [ -124.493915757713012, 42.741554591479002 ], [ -124.498473, 42.741077 ], [ -124.498909774486009, 42.739414026571296 ], [ -124.498970466465011, 42.739182948174602 ], [ -124.499122, 42.738606 ], [ -124.499408486234003, 42.738504500517401 ], [ -124.510017, 42.734746 ], [ -124.513368, 42.735068 ], [ -124.514669, 42.736806 ], [ -124.516236, 42.753632 ], [ -124.524439, 42.789793 ], [ -124.532333828514012, 42.806338617055793 ], [ -124.536073, 42.814175 ], [ -124.544179, 42.822958 ], [ -124.565972670427996, 42.835454067435897 ], [ -124.564568824542008, 42.839314643623197 ], [ -124.552441, 42.840568 ], [ -124.500141, 42.917502 ], [ -124.480938, 42.951495 ], [ -124.479343810854004, 42.954970295787398 ], [ -124.462619, 42.99143 ], [ -124.456918, 43.000315 ], [ -124.449083880216008, 43.027158581193298 ], [ -124.436198, 43.071312 ], [ -124.433417562214004, 43.089608010480497 ], [ -124.433005292650009, 43.092320852427598 ], [ -124.432406207704005, 43.096262988631899 ], [ -124.432236, 43.097383 ], [ -124.432747556448007, 43.101679381306198 ], [ -124.433691536656013, 43.109607536525196 ], [ -124.433957511909014, 43.111841368414197 ], [ -124.434451, 43.115986 ], [ -124.434419666916014, 43.116018954596399 ], [ -124.429253343926007, 43.121452639049394 ], [ -124.427595577081007, 43.123196196692 ], [ -124.42667696178701, 43.124162351082596 ], [ -124.425647353361001, 43.125245242591397 ], [ -124.425016134545018, 43.125909127499803 ], [ -124.424113, 43.126859 ], [ -124.401726, 43.184896 ], [ -124.401715100541011, 43.184940461445997 ], [ -124.401111564304003, 43.187402427056497 ], [ -124.400943212609008, 43.188089173035003 ], [ -124.399800057017998, 43.192752372328002 ], [ -124.396764751664008, 43.205134093502004 ], [ -124.396336424912008, 43.206881338600496 ], [ -124.395474320191013, 43.210398065596301 ], [ -124.39539213019701, 43.2107333378232 ], [ -124.395302, 43.211101 ], [ -124.395305586437004, 43.211251595060794 ], [ -124.395607, 43.223908 ], [ -124.38246, 43.270167 ], [ -124.383283968964008, 43.272775103285198 ], [ -124.388891, 43.290523 ], [ -124.393988, 43.29926 ], [ -124.400404, 43.302121 ], [ -124.402814, 43.305872 ], [ -124.387642, 43.325968 ], [ -124.373037, 43.338953 ], [ -124.353332, 43.342667 ], [ -124.341587, 43.351337 ], [ -124.315012, 43.388389 ], [ -124.286896, 43.436296 ], [ -124.279473391428013, 43.451924592139598 ], [ -124.278222927299993, 43.454557493182001 ], [ -124.255609, 43.502172 ], [ -124.233534, 43.55713 ], [ -124.232122906764999, 43.562250335856596 ], [ -124.232054675195002, 43.562497923009602 ], [ -124.232027639074005, 43.562596027100298 ], [ -124.232026851257999, 43.562598885791701 ], [ -124.23202071259, 43.562621160750702 ], [ -124.218875979136996, 43.610318540596403 ], [ -124.204936517511015, 43.6608996952776 ], [ -124.204877173915008, 43.661115031256394 ], [ -124.204635192694994, 43.661993091676393 ], [ -124.203028, 43.667825 ], [ -124.203770371068018, 43.670280013138196 ], [ -124.204888, 43.673976 ], [ -124.198275, 43.689481 ], [ -124.193455, 43.706085 ], [ -124.168392, 43.808903 ], [ -124.164365989054005, 43.831547951057701 ], [ -124.15868448572401, 43.863504487331596 ], [ -124.138783, 43.86364 ], [ -124.126227, 43.863725 ], [ -124.121386, 43.8631 ], [ -124.104169, 43.86328 ], [ -124.101656, 43.86337 ], [ -124.082423, 43.863657 ], [ -124.077867, 43.864032 ], [ -124.06475, 43.864111 ], [ -124.064657, 43.861931 ], [ -124.001222, 43.86295 ], [ -123.945558, 43.862742 ], [ -123.945541, 43.871088 ], [ -123.92551, 43.865633 ], [ -123.92535, 43.874494 ], [ -123.926058, 43.874841 ], [ -123.925513, 43.899167 ], [ -123.9148, 43.899218 ], [ -123.90185, 43.89928 ], [ -123.900414, 43.899528 ], [ -123.900317, 43.902796 ], [ -123.895871, 43.903185 ], [ -123.89593, 43.905846 ], [ -123.882242, 43.906082 ], [ -123.880724, 43.90673 ], [ -123.880994, 43.910395 ], [ -123.875506, 43.910134 ], [ -123.875875, 43.913985 ], [ -123.874114, 43.913968 ], [ -123.873345, 43.913985 ], [ -123.870808, 43.914084 ], [ -123.871421, 43.917016 ], [ -123.861024, 43.917561 ], [ -123.86177, 43.920732 ], [ -123.853146, 43.92049 ], [ -123.853073, 43.921378 ], [ -123.850753, 43.921512 ], [ -123.850641, 43.923322 ], [ -123.851976, 43.924066 ], [ -123.848009, 43.923889 ], [ -123.84642, 43.925083 ], [ -123.846411, 43.927259 ], [ -123.842725, 43.927461 ], [ -123.841445, 43.928803 ], [ -123.841434, 43.93162 ], [ -123.8377, 43.931621 ], [ -123.837617, 43.93511 ], [ -123.83303, 43.935048 ], [ -123.832057, 43.942589 ], [ -123.82713, 43.942627 ], [ -123.827622, 43.945045 ], [ -123.809787, 43.944854 ], [ -123.758717, 43.944458 ], [ -123.751526, 43.944384 ], [ -123.733497, 43.94472 ], [ -123.703461, 43.945131 ], [ -123.703586, 43.936798 ], [ -123.658936, 43.935857 ], [ -123.658912, 43.921122 ], [ -123.6193, 43.92013 ], [ -123.619311, 43.891653 ], [ -123.57949, 43.891057 ], [ -123.579681, 43.868138 ], [ -123.528959, 43.868192 ], [ -123.529131, 43.829471 ], [ -123.478355, 43.830231 ], [ -123.470729, 43.830517 ], [ -123.470506, 43.810196 ], [ -123.367388, 43.808626 ], [ -123.348016, 43.809165 ], [ -123.347659, 43.780169 ], [ -123.313297, 43.780048 ], [ -123.311819, 43.780043 ], [ -123.185989, 43.7797 ], [ -123.153734, 43.77968 ], [ -123.147539, 43.779674 ], [ -123.137677, 43.779666 ], [ -123.137772, 43.753702 ], [ -123.138162, 43.736279 ], [ -123.137848, 43.677075 ], [ -123.13751, 43.649405 ], [ -123.137511, 43.624843 ], [ -123.137064, 43.60597 ], [ -123.107719, 43.605937 ], [ -123.107485, 43.542156 ], [ -123.107475, 43.540004 ], [ -123.062261, 43.539922 ], [ -123.055756, 43.539555 ], [ -123.051946, 43.539865 ], [ -123.001178, 43.539374 ], [ -122.987811, 43.539701 ], [ -122.987835, 43.541782 ], [ -122.934156, 43.543183 ], [ -122.84726, 43.544957 ], [ -122.834111, 43.544924 ], [ -122.741771, 43.544553 ], [ -122.741502, 43.517581 ], [ -122.740765, 43.437142 ], [ -122.622161, 43.438442 ], [ -122.622161, 43.440342 ], [ -122.509743, 43.440047 ], [ -122.508458, 43.441243 ], [ -122.448184, 43.441002 ], [ -122.132044, 43.440445 ], [ -122.132745, 43.441346 ], [ -122.135945, 43.442546 ], [ -122.140945, 43.445045 ], [ -122.142745, 43.444545 ], [ -122.146046, 43.442245 ], [ -122.150546, 43.444445 ], [ -122.153146, 43.447345 ], [ -122.151046, 43.448945 ], [ -122.148046, 43.449545 ], [ -122.147346, 43.452945 ], [ -122.145046, 43.455145 ], [ -122.143646, 43.458045 ], [ -122.144646, 43.459545 ], [ -122.141946, 43.461645 ], [ -122.141946, 43.463145 ], [ -122.139746, 43.467645 ], [ -122.135446, 43.471245 ], [ -122.135046, 43.473445 ], [ -122.132945, 43.474545 ], [ -122.133346, 43.482245 ], [ -122.131746, 43.484845 ], [ -122.131946, 43.487045 ], [ -122.134246, 43.490645 ], [ -122.131546, 43.494345 ], [ -122.129446, 43.495445 ], [ -122.129346, 43.496745 ], [ -122.131146, 43.499345 ], [ -122.129857, 43.503236 ], [ -122.13029, 43.506397 ], [ -122.132938, 43.509658 ], [ -122.137319, 43.512119 ], [ -122.142132, 43.513128 ], [ -122.147197, 43.515324 ], [ -122.147813, 43.516031 ], [ -122.149335, 43.520894 ], [ -122.14653, 43.523617 ], [ -122.146801, 43.525503 ], [ -122.145109, 43.528292 ], [ -122.1403, 43.529978 ], [ -122.140243, 43.53086 ], [ -122.142108, 43.53509 ], [ -122.142389, 43.537745 ], [ -122.141479, 43.540095 ], [ -122.135591, 43.545581 ], [ -122.134876, 43.549807 ], [ -122.133047, 43.553639 ], [ -122.130944, 43.557149 ], [ -122.127798, 43.558284 ], [ -122.125216, 43.560165 ], [ -122.124622, 43.561842 ], [ -122.122179, 43.563045 ], [ -122.117852, 43.562098 ], [ -122.113539, 43.563649 ], [ -122.11065, 43.567034 ], [ -122.106405, 43.570219 ], [ -122.105934, 43.57261 ], [ -122.103682, 43.574446 ], [ -122.099644, 43.576838 ], [ -122.09686, 43.57791 ], [ -122.0936, 43.578995 ], [ -122.087676, 43.580206 ], [ -122.082121, 43.57849 ], [ -122.078728, 43.577907 ], [ -122.075359, 43.579743 ], [ -122.072411, 43.5797 ], [ -122.070468, 43.581409 ], [ -122.072492, 43.5838 ], [ -122.075496, 43.585493 ], [ -122.075308, 43.587221 ], [ -122.074189, 43.587518 ], [ -122.071054, 43.586569 ], [ -122.066292, 43.587571 ], [ -122.063748, 43.587026 ], [ -122.062249, 43.587617 ], [ -122.061721, 43.589175 ], [ -122.058563, 43.591668 ], [ -122.052973, 43.593473 ], [ -122.047591, 43.597088 ], [ -122.040582, 43.599986 ], [ -122.037894, 43.600296 ], [ -122.028774, 43.604054 ], [ -122.025688, 43.605978 ], [ -122.020353, 43.606694 ], [ -122.017382, 43.60918 ], [ -122.015079, 43.609557 ], [ -122.011182, 43.609313 ], [ -122.008044, 43.611005 ], [ -122.005738, 43.61315 ], [ -122.002675, 43.615228 ], [ -122.001141, 43.615417 ], [ -121.600175, 43.616489 ], [ -121.547718, 43.616678 ], [ -121.464415, 43.616677 ], [ -121.332982, 43.616629 ], [ -120.974418, 43.617549 ], [ -120.974518, 43.615749 ], [ -120.87349, 43.61557 ], [ -120.550607, 43.615761 ], [ -120.547215, 43.615571 ], [ -120.378194, 43.615452 ], [ -120.378194, 43.611059 ], [ -120.376094, 43.611057 ], [ -120.368394, 43.61147 ], [ -120.279963, 43.612107 ], [ -120.251631, 43.610875 ], [ -120.00655, 43.61062 ], [ -120.001078, 43.610228 ], [ -119.896365, 43.610259 ], [ -119.898172, 43.698323 ], [ -119.777526, 43.698081 ], [ -119.77715, 43.783706 ], [ -119.77698, 43.785657 ], [ -119.775653, 43.959068 ], [ -119.657577, 43.959051 ], [ -119.614332, 43.959216 ], [ -119.500866, 43.957988 ], [ -119.497704, 43.957418 ], [ -118.931948, 43.959876 ], [ -118.918529, 43.959888 ], [ -118.816649, 43.959975 ], [ -118.81625, 44.047678 ], [ -118.799671, 44.047701 ], [ -118.586646, 44.047078 ], [ -118.586746, 44.040078 ], [ -118.503922, 44.040175 ], [ -118.467308, 44.040407 ], [ -118.466299, 44.040409 ], [ -118.363973, 44.040269 ], [ -118.347475, 44.039078 ], [ -118.227435, 44.039981 ], [ -118.228187, 44.183238 ], [ -118.22834, 44.212483 ], [ -118.233641, 44.212483 ], [ -118.23214, 44.256083 ], [ -118.19324, 44.256084 ], [ -118.19334, 44.270684 ], [ -118.152639, 44.270682 ], [ -118.15234, 44.299583 ], [ -118.131839, 44.299483 ], [ -118.13204, 44.313883 ], [ -118.111739, 44.314183 ], [ -118.11184, 44.328683 ], [ -118.092239, 44.328683 ], [ -118.09154, 44.343083 ], [ -118.08664, 44.343083 ], [ -118.08694, 44.357483 ], [ -118.07194, 44.357383 ], [ -118.07184, 44.371783 ], [ -118.05164, 44.371983 ], [ -118.051941, 44.389983 ], [ -118.031741, 44.389883 ], [ -118.031442, 44.415183 ], [ -118.011341, 44.415283 ], [ -118.011342, 44.429683 ], [ -117.971597, 44.429626 ], [ -117.971596, 44.443328 ], [ -117.749676, 44.443992 ], [ -117.631474, 44.444357 ], [ -117.608705, 44.444366 ], [ -117.590992, 44.444461 ], [ -117.59081, 44.430078 ], [ -117.570106, 44.43027 ], [ -117.56988, 44.415491 ], [ -117.529694, 44.415723 ], [ -117.529533, 44.401649 ], [ -117.509586, 44.401826 ], [ -117.509425, 44.387245 ], [ -117.485899, 44.387696 ], [ -117.486188, 44.365975 ], [ -117.486153, 44.30142 ], [ -117.405267, 44.301607 ], [ -117.304196, 44.301376 ], [ -117.220069, 44.301382 ], [ -117.222451, 44.298963 ], [ -117.222647, 44.297578 ], [ -117.216974, 44.288357 ], [ -117.198559149539008, 44.274146060267398 ], [ -117.198147, 44.273828 ], [ -117.193129, 44.270963 ], [ -117.170342, 44.25889 ], [ -117.15706, 44.25749 ], [ -117.143394, 44.258262 ], [ -117.138523, 44.25937 ], [ -117.133984, 44.262972 ], [ -117.133104, 44.264236 ], [ -117.13253, 44.267045 ], [ -117.130904, 44.269453 ], [ -117.121037, 44.277585 ], [ -117.118018, 44.278945 ], [ -117.111617, 44.280667 ], [ -117.107673, 44.280763 ], [ -117.104208, 44.27994 ], [ -117.102242, 44.278799 ], [ -117.098531, 44.275533 ], [ -117.09457, 44.270978 ], [ -117.093578, 44.269383 ], [ -117.090933, 44.260311 ], [ -117.089503, 44.258234 ], [ -117.07835, 44.249885 ], [ -117.067284, 44.24401 ], [ -117.059352, 44.237244 ], [ -117.05651, 44.230874 ], [ -117.05303, 44.229076 ], [ -117.050057, 44.22883 ], [ -117.047407669096003, 44.229636741163603 ], [ -117.047062, 44.229742 ], [ -117.045513, 44.232005 ], [ -117.042283, 44.242775 ], [ -117.03585, 44.246805 ], [ -117.031862, 44.248635 ], [ -117.027558, 44.248881 ], [ -117.025277, 44.248505 ], [ -117.020231, 44.246063 ], [ -117.016921, 44.245391 ], [ -117.008000996386016, 44.2453881986673 ], [ -117.003682330068003, 44.245386842387397 ], [ -117.001, 44.245386 ], [ -116.98687, 44.245477 ], [ -116.975905, 44.242844 ], [ -116.973542, 44.23998 ], [ -116.971958, 44.235677 ], [ -116.973945, 44.225932 ], [ -116.973701, 44.208017 ], [ -116.971675, 44.197256 ], [ -116.967259, 44.194581 ], [ -116.965498, 44.194126 ], [ -116.949516444005994, 44.191571735564004 ], [ -116.947591, 44.191264 ], [ -116.945256, 44.191677 ], [ -116.940534, 44.19371 ], [ -116.939296726739002, 44.193771243932801 ], [ -116.935443, 44.193962 ], [ -116.925392, 44.191544 ], [ -116.902752, 44.179467 ], [ -116.900103, 44.176851 ], [ -116.895757, 44.171267 ], [ -116.894083, 44.160191 ], [ -116.894309, 44.158114 ], [ -116.895931, 44.154295 ], [ -116.927688, 44.109438 ], [ -116.916399459543001, 44.125383147818702 ], [ -116.897175038213007, 44.152537786720096 ], [ -116.893526, 44.152498 ], [ -116.883619, 44.152394 ], [ -116.882264, 44.152605 ], [ -116.755794, 44.151804 ], [ -116.631863, 44.151855 ], [ -116.556021, 44.15171 ], [ -116.553224, 44.151707 ], [ -116.452012, 44.151417 ], [ -116.452526, 44.065345 ], [ -116.481953, 44.065518 ], [ -116.532176, 44.06606 ], [ -116.532838, 44.052282 ], [ -116.532752, 44.043383 ], [ -116.532432, 44.008904 ], [ -116.572208, 44.009281 ], [ -116.572245, 43.980334 ], [ -116.712591, 43.981259 ], [ -116.712421, 43.960539 ], [ -116.7123, 43.956038 ], [ -116.712489, 43.95212 ], [ -116.712504, 43.90566 ], [ -116.712312, 43.904546 ], [ -116.712672, 43.807161 ], [ -116.707332, 43.807279 ], [ -116.671043, 43.807195 ], [ -116.669114, 43.806917 ], [ -116.644628, 43.806911 ], [ -116.592575, 43.807119 ], [ -116.566151, 43.807132 ], [ -116.512559, 43.807216 ], [ -116.5126, 43.723599 ], [ -116.512862, 43.720736 ], [ -116.512679, 43.719318 ], [ -116.512643, 43.717636 ], [ -116.512552, 43.709224 ], [ -116.512598, 43.706892 ], [ -116.512605, 43.705582 ], [ -116.512654, 43.70318 ], [ -116.51267, 43.698833 ], [ -116.512667, 43.695442 ], [ -116.512667, 43.69526 ], [ -116.51267, 43.693904 ], [ -116.512563, 43.692317 ], [ -116.512548, 43.691663 ], [ -116.512524, 43.687857 ], [ -116.512783, 43.686561 ], [ -116.51267, 43.685583 ], [ -116.512484, 43.681748 ], [ -116.512425, 43.670803 ], [ -116.512699, 43.67064 ], [ -116.513123, 43.634183 ], [ -116.493501, 43.634136 ], [ -116.473492, 43.634103 ], [ -116.473613, 43.619461 ], [ -116.473594, 43.609916 ], [ -116.473569, 43.605505 ], [ -116.473537, 43.60489 ], [ -116.47353, 43.597204 ], [ -116.473529, 43.596943 ], [ -116.473496, 43.58288 ], [ -116.473535, 43.575774 ], [ -116.473591, 43.567921 ], [ -116.473664, 43.56124 ], [ -116.473616, 43.546699 ], [ -116.473541, 43.529661 ], [ -116.473557, 43.529436 ], [ -116.473545, 43.517679 ], [ -116.473486, 43.502944 ], [ -116.473393, 43.488294 ], [ -116.473618, 43.459859 ], [ -116.478548, 43.459237 ], [ -116.513364, 43.45932 ], [ -116.513424, 43.451326 ], [ -116.513496, 43.442783 ], [ -116.513454, 43.437057 ], [ -116.513497, 43.41777 ], [ -116.513933, 43.415888 ], [ -116.51353, 43.414992 ], [ -116.513547, 43.408255 ], [ -116.513683, 43.372002 ], [ -116.512334, 43.371764 ], [ -116.511722, 43.290253 ], [ -116.50855, 43.286911 ], [ -116.502778, 43.283926 ], [ -116.501505, 43.282168 ], [ -116.497596, 43.28253 ], [ -116.494304, 43.285505 ], [ -116.489679, 43.287875 ], [ -116.480736, 43.28986 ], [ -116.477528, 43.290056 ], [ -116.472477, 43.291353 ], [ -116.468277, 43.291354 ], [ -116.465447, 43.290769 ], [ -116.462031, 43.290682 ], [ -116.455547, 43.291774 ], [ -116.450587, 43.291983 ], [ -116.447366, 43.292677 ], [ -116.442476, 43.294674 ], [ -116.440564, 43.296056 ], [ -116.433111, 43.296436 ], [ -116.429283, 43.294591 ], [ -116.424989, 43.293737 ], [ -116.42187, 43.290854 ], [ -116.417075, 43.288427 ], [ -116.414529, 43.28578 ], [ -116.412331, 43.285025 ], [ -116.409962, 43.28428 ], [ -116.406199, 43.280647 ], [ -116.406171, 43.276845 ], [ -116.40313, 43.27422 ], [ -116.402566, 43.272148 ], [ -116.402352, 43.265623 ], [ -116.40342, 43.263418 ], [ -116.402809, 43.261999 ], [ -116.40011, 43.259641 ], [ -116.396661, 43.257554 ], [ -116.389757, 43.254364 ], [ -116.388408, 43.253257 ], [ -116.386523, 43.250625 ], [ -116.385042, 43.249887 ], [ -116.382557, 43.245622 ], [ -116.380019, 43.243115 ], [ -116.377268, 43.239835 ], [ -116.376173, 43.232271 ], [ -116.384456, 43.215312 ], [ -116.383884, 43.208901 ], [ -116.382621, 43.205382 ], [ -116.385485, 43.197664 ], [ -116.386188, 43.194557 ], [ -116.385046, 43.192221 ], [ -116.380121, 43.187335 ], [ -116.375776, 43.185248 ], [ -116.370592, 43.183551 ], [ -116.366738, 43.180329 ], [ -116.365266, 43.17667 ], [ -116.360545, 43.173441 ], [ -116.35367, 43.166191 ], [ -116.351251, 43.165051 ], [ -116.340993, 43.164437 ], [ -116.338399, 43.163531 ], [ -116.335119, 43.16104 ], [ -116.333994, 43.159102 ], [ -116.332551, 43.15285 ], [ -116.332751, 43.149583 ], [ -116.329914, 43.147566 ], [ -116.322291, 43.145457 ], [ -116.318059, 43.143417 ], [ -116.315087, 43.140153 ], [ -116.312279, 43.135834 ], [ -116.310064, 43.126855 ], [ -116.308225, 43.123649 ], [ -116.306244, 43.121365 ], [ -116.30316, 43.119929 ], [ -116.299488, 43.119115 ], [ -116.284253, 43.119986 ], [ -116.279223, 43.119733 ], [ -116.269401, 43.117486 ], [ -116.268018, 43.116562 ], [ -116.266147, 43.113729 ], [ -116.266168, 43.112553 ], [ -116.267466, 43.10816 ], [ -116.266902, 43.106557 ], [ -116.265035, 43.105263 ], [ -116.25329, 43.100029 ], [ -116.250938, 43.099847 ], [ -116.243148, 43.097818 ], [ -116.241023, 43.096951 ], [ -116.238455, 43.095069 ], [ -116.235046, 43.094816 ], [ -116.232355, 43.09548 ], [ -116.223126, 43.09666 ], [ -116.21799, 43.096102 ], [ -116.210025, 43.094419 ], [ -116.204634, 43.092894 ], [ -116.202948, 43.09185 ], [ -116.197051, 43.086482 ], [ -116.192195, 43.084118 ], [ -116.192044, 43.081355 ], [ -116.192821, 43.080178 ], [ -116.196701, 43.077152 ], [ -116.205254, 43.071498 ], [ -116.207422, 43.068665 ], [ -116.208039, 43.065877 ], [ -116.20791, 43.06375 ], [ -116.206848, 43.061817 ], [ -116.205842, 43.056501 ], [ -116.205522, 43.052706 ], [ -116.200621, 43.048917 ], [ -116.195994, 43.047987 ], [ -116.190063, 43.044971 ], [ -116.183534, 43.04318 ], [ -116.176887, 43.042509 ], [ -116.173793, 43.039805 ], [ -116.169911, 43.037874 ], [ -116.165001, 43.038144 ], [ -116.15814, 43.03947 ], [ -116.153748, 43.039674 ], [ -116.148749, 43.038751 ], [ -116.145978, 43.037391 ], [ -116.141535, 43.034565 ], [ -116.139705, 43.031803 ], [ -116.140299, 43.02775 ], [ -116.141921, 43.025984 ], [ -116.145342, 43.024025 ], [ -116.148641, 43.021622 ], [ -116.149679, 43.019631 ], [ -116.149739, 43.01719 ], [ -116.148858, 43.015893 ], [ -116.144175, 43.013438 ], [ -116.138576, 43.013248 ], [ -116.132673, 43.014767 ], [ -116.130292, 43.01509 ], [ -116.125929, 43.014914 ], [ -116.118036, 43.012541 ], [ -116.112902, 43.008759 ], [ -116.109336, 43.00446 ], [ -116.10294, 42.998586 ], [ -116.099466, 42.996531 ], [ -116.09734, 42.9958 ], [ -116.093196, 42.991567 ], [ -116.09068, 42.987828 ], [ -116.0868, 42.987937 ], [ -116.078854, 42.986983 ], [ -116.075845, 42.985962 ], [ -116.072476, 42.986108 ], [ -116.062657, 42.987745 ], [ -116.059179, 42.987826 ], [ -116.053041, 42.98725 ], [ -116.048588, 42.984195 ], [ -116.045331, 42.97996 ], [ -116.043762, 42.978574 ], [ -116.039776, 42.973802 ], [ -116.036201, 42.968363 ], [ -116.035791, 42.966884 ], [ -116.031607, 42.961677 ], [ -116.023221, 42.957474 ], [ -116.021036, 42.955253 ], [ -116.01349, 42.950505 ], [ -116.012092, 42.949917 ], [ -116.007768, 42.949283 ], [ -116.002266, 42.949015 ], [ -115.99855, 42.948221 ], [ -115.993878, 42.948692 ], [ -115.980009, 42.947713 ], [ -115.977283, 42.946957 ], [ -115.965669, 42.943725 ], [ -115.961209, 42.952103 ], [ -115.962059, 42.956588 ], [ -115.967287, 42.963137 ], [ -115.971322, 42.969723 ], [ -115.971571, 42.971016 ], [ -115.97114, 42.972281 ], [ -115.96772, 42.976011 ], [ -115.967896, 42.979711 ], [ -115.967035, 42.981887 ], [ -115.963908, 42.986568 ], [ -115.960491, 42.989168 ], [ -115.956641, 42.990116 ], [ -115.953553, 42.992685 ], [ -115.947158, 42.99392 ], [ -115.942438, 42.9961 ], [ -115.939278, 42.999893 ], [ -115.938031, 43.000796 ], [ -115.93495, 43.001703 ], [ -115.933147, 43.001404 ], [ -115.930258, 43.001889 ], [ -115.926546, 43.001526 ], [ -115.921801, 42.997448 ], [ -115.91805, 42.995259 ], [ -115.917015, 42.993573 ], [ -115.916725, 42.991864 ], [ -115.917649, 42.988181 ], [ -115.916669, 42.986439 ], [ -115.906885, 42.982468 ], [ -115.903238, 42.981891 ], [ -115.89642, 42.982277 ], [ -115.893281, 42.983401 ], [ -115.889233, 42.986893 ], [ -115.885786, 42.988114 ], [ -115.878624, 42.989103 ], [ -115.869739, 42.984299 ], [ -115.867895, 42.982695 ], [ -115.866159, 42.97625 ], [ -115.86436, 42.974694 ], [ -115.861771, 42.974595 ], [ -115.856296, 42.972948 ], [ -115.853487, 42.971665 ], [ -115.848363, 42.970018 ], [ -115.843943, 42.969853 ], [ -115.838787, 42.970727 ], [ -115.834157, 42.97235 ], [ -115.831206, 42.973016 ], [ -115.826718, 42.973422 ], [ -115.815967, 42.972944 ], [ -115.810065, 42.973912 ], [ -115.806203, 42.973884 ], [ -115.793499, 42.973241 ], [ -115.791273, 42.972585 ], [ -115.789639, 42.971133 ], [ -115.7885, 42.969046 ], [ -115.788033, 42.964736 ], [ -115.786159, 42.962872 ], [ -115.785919, 42.961519 ], [ -115.787555, 42.959193 ], [ -115.794711, 42.953338 ], [ -115.796007, 42.952027 ], [ -115.796031, 42.948926 ], [ -115.790955, 42.9459 ], [ -115.787325, 42.944712 ], [ -115.781537, 42.943659 ], [ -115.772058, 42.939499 ], [ -115.76991, 42.938948 ], [ -115.761139, 42.939323 ], [ -115.754453, 42.937694 ], [ -115.75133, 42.938134 ], [ -115.750918, 42.938228 ], [ -115.750365, 42.938091 ], [ -115.749381, 42.938352 ], [ -115.740118, 42.943079 ], [ -115.738203, 42.942888 ], [ -115.73334, 42.939544 ], [ -115.731619, 42.938791 ], [ -115.727872, 42.938748 ], [ -115.723432, 42.940522 ], [ -115.719459, 42.940116 ], [ -115.708071, 42.939551 ], [ -115.704629, 42.939679 ], [ -115.696011, 42.939286 ], [ -115.691976, 42.939458 ], [ -115.687483, 42.94023 ], [ -115.681088, 42.942181 ], [ -115.671823, 42.943391 ], [ -115.663861, 42.945201 ], [ -115.658257, 42.947671 ], [ -115.656742, 42.947869 ], [ -115.649207, 42.952604 ], [ -115.64678, 42.953664 ], [ -115.641066, 42.95536 ], [ -115.638068, 42.955793 ], [ -115.629847, 42.956488 ], [ -115.624025, 42.956299 ], [ -115.618766, 42.953446 ], [ -115.614403, 42.951759 ], [ -115.61229, 42.949746 ], [ -115.611361, 42.945909 ], [ -115.609967, 42.944231 ], [ -115.606959, 42.941963 ], [ -115.604943, 42.93841 ], [ -115.60373, 42.937249 ], [ -115.60074, 42.9372 ], [ -115.597611, 42.937811 ], [ -115.593526, 42.936779 ], [ -115.585855, 42.936879 ], [ -115.584413, 42.936532 ], [ -115.579739, 42.937182 ], [ -115.570205, 42.935729 ], [ -115.566267, 42.93443 ], [ -115.563434, 42.934865 ], [ -115.56063, 42.934679 ], [ -115.554498, 42.939548 ], [ -115.551145, 42.940582 ], [ -115.53941, 42.942298 ], [ -115.535079, 42.942569 ], [ -115.528202, 42.941469 ], [ -115.524151, 42.93966 ], [ -115.519704, 42.938875 ], [ -115.515529, 42.937339 ], [ -115.51034, 42.933844 ], [ -115.509175, 42.931634 ], [ -115.500908, 42.927352 ], [ -115.497201, 42.926463 ], [ -115.492353, 42.926871 ], [ -115.484078, 42.929788 ], [ -115.474188, 42.927722 ], [ -115.465875, 42.928227 ], [ -115.459712, 42.928864 ], [ -115.455624, 42.928245 ], [ -115.451069, 42.928783 ], [ -115.447262, 42.93032 ], [ -115.44157, 42.930904 ], [ -115.441575, 42.930615 ], [ -115.441512, 42.851104 ], [ -115.454456, 42.851137 ], [ -115.454328, 42.826741 ], [ -115.454314, 42.767732 ], [ -115.089977, 42.768365 ], [ -115.037716, 42.76848 ], [ -115.037694, 42.749936 ], [ -115.03755, 42.748562 ], [ -115.037694, 42.682433 ], [ -115.037562, 42.628859 ], [ -115.037369, 42.624817 ], [ -115.037432, 42.622285 ], [ -115.037575, 42.579123 ], [ -115.037828, 42.50126 ], [ -115.03731, 42.468325 ], [ -115.037854, 42.458979 ], [ -115.037861, 42.301361 ], [ -115.037868, 42.245604 ], [ -115.037829, 42.202404 ], [ -115.038255996474007, 41.996012374205399 ], [ -115.250795, 41.996156 ], [ -115.254333, 41.996721 ], [ -115.313877, 41.996103 ], [ -115.569975037990005, 41.996835721918998 ], [ -115.586849, 41.996884 ], [ -115.625914, 41.997415 ], [ -115.711103055967001, 41.997188658753203 ], [ -115.870181, 41.996766 ], [ -115.879596, 41.997891 ], [ -115.887612, 41.998048 ], [ -115.98688, 41.998534 ], [ -116.012212, 41.998035 ], [ -116.012219, 41.998048 ], [ -116.018945, 41.997722 ], [ -116.01896, 41.997762 ], [ -116.030758, 41.997383 ], [ -116.030754, 41.997399 ], [ -116.03857, 41.997413 ], [ -116.038602, 41.99746 ], [ -116.160833, 41.997508 ], [ -116.163931, 41.997555 ], [ -116.332763, 41.997283 ], [ -116.368478, 41.996281 ], [ -116.37817904436001, 41.9963081486354 ], [ -116.463528, 41.996547 ], [ -116.483094, 41.996885 ], [ -116.485823, 41.996861 ], [ -116.499777, 41.99674 ], [ -116.501741, 41.997334 ], [ -116.510452, 41.997096 ], [ -116.525319, 41.997558 ], [ -116.582217, 41.997834 ], [ -116.586937, 41.99737 ], [ -116.625947, 41.997379 ], [ -116.62677, 41.99775 ], [ -116.862274527007003, 41.998603601251297 ], [ -116.969156, 41.998991 ], [ -117.009255, 41.998127 ], [ -117.018294, 41.999358 ], [ -117.018364, 41.969724 ], [ -117.018353, 41.918936 ], [ -117.018521, 41.91713 ], [ -117.019524, 41.763812 ], [ -117.018635, 41.749893 ], [ -117.018548, 41.662009 ], [ -117.018485, 41.624895 ], [ -117.018165, 41.622419 ], [ -117.018264, 41.499897 ], [ -117.017588, 41.494204 ], [ -117.018026, 41.422461 ], [ -117.018666, 41.296331 ], [ -117.018413, 41.249901 ], [ -117.017904, 41.147506 ], [ -117.017903, 41.124904 ], [ -117.018224, 41.124764 ], [ -117.018419, 41.000254 ], [ -117.01865, 40.998763 ], [ -117.018218, 40.785862 ], [ -117.018551, 40.783462 ], [ -117.018612, 40.709486 ], [ -117.018616, 40.705738 ], [ -117.01863, 40.703737 ], [ -117.01976, 40.699343 ], [ -117.018624, 40.69454 ], [ -117.018661, 40.647332 ], [ -117.018664, 40.643035 ], [ -117.035178, 40.642944 ], [ -117.051559, 40.642334 ], [ -117.246788, 40.642445 ], [ -117.300597, 40.526136 ], [ -117.299971, 40.676264 ], [ -117.301168, 40.682348 ], [ -117.309441, 40.683537 ], [ -117.492393, 40.684177 ], [ -117.498711, 40.684205 ], [ -117.500953, 40.684324 ], [ -117.625957, 40.684462 ], [ -117.644399, 40.684343 ], [ -117.644149, 40.829319 ], [ -117.64422, 40.857824 ], [ -117.737789, 40.857602 ], [ -117.755824, 40.857698 ], [ -117.804323, 40.857771 ], [ -117.804496, 40.857608 ], [ -117.830763, 40.857653 ], [ -117.846526, 40.857805 ], [ -117.852165, 40.857711 ], [ -117.952241, 40.857816 ], [ -117.95285, 40.857816 ], [ -117.964974, 40.857831 ], [ -117.996656, 40.857891 ], [ -118.080258, 40.857617 ], [ -118.248507, 40.856909 ], [ -118.250981, 40.857015 ], [ -118.259267, 40.857009 ], [ -118.786738, 40.855929 ], [ -118.786673, 40.869694 ], [ -118.786705, 40.96085 ], [ -118.874286, 40.961027 ], [ -119.30767, 40.960268 ], [ -119.309598, 40.960378 ], [ -119.30999, 40.958525 ], [ -119.309899, 40.956924 ], [ -119.309326, 40.954888 ], [ -119.309568, 40.953745 ], [ -119.309268, 40.883143 ], [ -119.309148, 40.882663 ], [ -119.311368, 40.7499 ], [ -119.311903, 40.74402 ], [ -119.312655, 40.674776 ], [ -119.312936, 40.584395 ], [ -119.312976, 40.558759 ], [ -119.313037, 40.518314 ], [ -119.338504, 40.517805 ], [ -119.337998, 40.358285 ], [ -119.337787, 40.354929 ], [ -119.33821, 40.311593 ], [ -119.338807, 40.244622 ], [ -119.3387, 40.1576 ], [ -119.339296, 39.998609 ], [ -119.251006, 39.99872 ], [ -119.250106, 39.999207 ], [ -119.225176, 39.999385 ], [ -119.22527, 39.914092 ], [ -119.226068, 39.906771 ], [ -119.226139, 39.899449 ], [ -119.208628, 39.899459 ], [ -119.208543, 39.809967 ], [ -119.189761, 39.809994 ], [ -119.189707, 39.788221 ], [ -119.170899, 39.788288 ], [ -119.171145, 39.722791 ], [ -119.170577, 39.722788 ], [ -119.170641, 39.680453 ], [ -119.189327, 39.68048 ], [ -119.189342, 39.65087 ], [ -119.255034, 39.649646 ], [ -119.25876, 39.649213 ], [ -119.272631, 39.628582 ], [ -119.27306, 39.627994 ], [ -119.273426, 39.62743 ], [ -119.276902, 39.622271 ], [ -119.283637, 39.621561 ], [ -119.279801, 39.627112 ], [ -119.282425, 39.62889 ], [ -119.284213, 39.623492 ], [ -119.289489, 39.62101 ], [ -119.291456, 39.620684 ], [ -119.294096, 39.617423 ], [ -119.297378, 39.616954 ], [ -119.299042, 39.614938 ], [ -119.30621, 39.612676 ], [ -119.306347, 39.612843 ], [ -119.307672, 39.61295 ], [ -119.309607, 39.61183 ], [ -119.310129, 39.611419 ], [ -119.314024, 39.607421 ], [ -119.317492, 39.607625 ], [ -119.322048, 39.603634 ], [ -119.328381, 39.600669 ], [ -119.332326, 39.600544 ], [ -119.336066, 39.599089 ], [ -119.339245, 39.596805 ], [ -119.34149, 39.596573 ], [ -119.346627, 39.597604 ], [ -119.355272, 39.597124 ], [ -119.357002, 39.597866 ], [ -119.363961, 39.595619 ], [ -119.370321, 39.587012 ], [ -119.37294, 39.586981 ], [ -119.376006, 39.587871 ], [ -119.38156, 39.588397 ], [ -119.388702, 39.588041 ], [ -119.391611, 39.586796 ], [ -119.392314, 39.58576 ], [ -119.39487, 39.585676 ], [ -119.397758, 39.587391 ], [ -119.40482, 39.58982 ], [ -119.412885, 39.590684 ], [ -119.414906, 39.59041 ], [ -119.422038, 39.587937 ], [ -119.426578, 39.587529 ], [ -119.428981, 39.58776 ], [ -119.432686, 39.587142 ], [ -119.436145, 39.587882 ], [ -119.439444, 39.587241 ], [ -119.441135, 39.585253 ], [ -119.444476, 39.585124 ], [ -119.44646, 39.585817 ], [ -119.448079, 39.585888 ], [ -119.44828, 39.585772 ], [ -119.448883, 39.585898 ], [ -119.451941, 39.586701 ], [ -119.452522, 39.588235 ], [ -119.453933, 39.589243 ], [ -119.454996, 39.589356 ], [ -119.455889, 39.58929 ], [ -119.457448, 39.589001 ], [ -119.457894, 39.588838 ], [ -119.462481, 39.585644 ], [ -119.465417, 39.584329 ], [ -119.46749, 39.584323 ], [ -119.468413, 39.582943 ], [ -119.468434, 39.579087 ], [ -119.471218, 39.575833 ], [ -119.470542, 39.570944 ], [ -119.469334, 39.569908 ], [ -119.472651, 39.565954 ], [ -119.47386, 39.565742 ], [ -119.475907, 39.567072 ], [ -119.481243, 39.566567 ], [ -119.485783, 39.565557 ], [ -119.490008, 39.562896 ], [ -119.494563, 39.56324 ], [ -119.498893, 39.564116 ], [ -119.499926, 39.562962 ], [ -119.502438, 39.56359 ], [ -119.503464, 39.562366 ], [ -119.505882, 39.562269 ], [ -119.507965, 39.563209 ], [ -119.510365, 39.563169 ], [ -119.511744, 39.562281 ], [ -119.515254, 39.564099 ], [ -119.520387, 39.564476 ], [ -119.529076, 39.56668 ], [ -119.536683, 39.560983 ], [ -119.538241, 39.560887 ], [ -119.541495, 39.562576 ], [ -119.546223, 39.561484 ], [ -119.551764, 39.557312 ], [ -119.556478, 39.553073 ], [ -119.558843, 39.550421 ], [ -119.558105, 39.547927 ], [ -119.560047, 39.546523 ], [ -119.563146, 39.547027 ], [ -119.56934, 39.546229 ], [ -119.582375, 39.547461 ], [ -119.585676, 39.544899 ], [ -119.589242, 39.544141 ], [ -119.595043, 39.53924 ], [ -119.596905, 39.535843 ], [ -119.600404, 39.530369 ], [ -119.604262, 39.52925 ], [ -119.60679, 39.526708 ], [ -119.612023, 39.52505 ], [ -119.617075, 39.521398 ], [ -119.618865, 39.5187 ], [ -119.619456, 39.513866 ], [ -119.622534, 39.511246 ], [ -119.626747, 39.510861 ], [ -119.63027, 39.511318 ], [ -119.634314, 39.512683 ], [ -119.636619, 39.512137 ], [ -119.638441, 39.512647 ], [ -119.642465, 39.512817 ], [ -119.643529, 39.512629 ], [ -119.646251, 39.511128 ], [ -119.647037, 39.510215 ], [ -119.648656, 39.509726 ], [ -119.653167, 39.508167 ], [ -119.664839, 39.508438 ], [ -119.667664, 39.50977 ], [ -119.669786, 39.511367 ], [ -119.673178, 39.512343 ], [ -119.677368, 39.512838 ], [ -119.682411, 39.515847 ], [ -119.685003, 39.518519 ], [ -119.688257, 39.520028 ], [ -119.689054, 39.520104 ], [ -119.695643, 39.520023 ], [ -119.695658, 39.516421 ], [ -119.695795, 39.489277 ], [ -119.695867, 39.476483 ], [ -119.695946, 39.462516 ], [ -119.696186, 39.452551 ], [ -119.696219, 39.449143 ], [ -119.69609, 39.447463 ], [ -119.655069, 39.447479 ], [ -119.656582, 39.431452 ], [ -119.656535, 39.424632 ], [ -119.657145, 39.404111 ], [ -119.677, 39.404471 ], [ -119.677272, 39.390756 ], [ -119.677271, 39.389575 ], [ -119.685464, 39.389575 ], [ -119.685344, 39.376278 ], [ -119.685415, 39.375063 ], [ -119.677527, 39.375095 ], [ -119.677527, 39.360647 ], [ -119.668102, 39.360798 ], [ -119.668144, 39.35065 ], [ -119.668134, 39.346216 ], [ -119.660818, 39.346115 ], [ -119.658821, 39.346088 ], [ -119.658501, 39.331544 ], [ -119.677414, 39.331529 ], [ -119.677416, 39.330979 ], [ -119.677461, 39.31703 ], [ -119.677494, 39.287275 ], [ -119.677476, 39.280871 ], [ -119.682441, 39.280946 ], [ -119.695957, 39.280903 ], [ -119.69652, 39.259145 ], [ -119.701234, 39.259001 ], [ -119.71407, 39.259175 ], [ -119.712645, 39.250871 ], [ -119.713623, 39.248656 ], [ -119.715297, 39.244283 ], [ -119.722198, 39.24423 ], [ -119.735137, 39.244131 ], [ -119.752093, 39.244385 ], [ -119.752168, 39.229892 ], [ -119.770872, 39.229832 ], [ -119.770871, 39.215285 ], [ -119.780361, 39.215297 ], [ -119.79886, 39.215238 ], [ -119.798856, 39.208038 ], [ -119.802413, 39.20804 ], [ -119.804106, 39.208459 ], [ -119.804328, 39.208426 ], [ -119.805561, 39.209136 ], [ -119.80952, 39.209427 ], [ -119.817526, 39.208917 ], [ -119.817526, 39.208024 ], [ -119.826731, 39.207988 ], [ -119.826716, 39.200819 ], [ -119.843933, 39.200776 ], [ -119.843883, 39.193152 ], [ -119.85326, 39.193022 ], [ -119.853263, 39.189886 ], [ -119.853266, 39.186406 ], [ -119.853403, 39.185751 ], [ -119.862517, 39.185639 ], [ -119.862103, 39.171148 ], [ -119.880802, 39.17091 ], [ -119.880787, 39.165509 ], [ -119.882644, 39.165513 ], [ -119.893583, 39.165533 ], [ -119.901182, 39.165545 ], [ -119.934164, 39.165603 ], [ -119.935207, 39.165604 ], [ -119.936856, 39.165607 ], [ -120.000801, 39.165692 ], [ -120.004504420333006, 39.165598679866399 ], [ -120.00559641068601, 39.218027845910797 ], [ -120.005673990957007, 39.221752667201592 ], [ -120.005691822331002, 39.222608795681303 ], [ -120.005746, 39.22521 ], [ -120.005743, 39.228664 ], [ -120.005670048303998, 39.236261900974299 ], [ -120.005593232455013, 39.244262252403502 ], [ -120.005318417449999, 39.272884166628195 ], [ -120.00531828224301, 39.272898248338599 ], [ -120.005263946360003, 39.278557317057796 ], [ -120.005258222592005, 39.2791534460873 ], [ -120.005142, 39.291258 ], [ -120.005414, 39.313345 ], [ -120.005413, 39.313848 ], [ -120.00532, 39.31635 ], [ -120.00471, 39.330488 ], [ -120.004434995193009, 39.374115548295698 ], [ -120.00443, 39.374908 ], [ -120.003116, 39.445113 ], [ -120.00294826314601, 39.456539951248899 ], [ -120.002848992862013, 39.463302667215196 ], [ -120.002808797339014, 39.466040958017899 ], [ -120.002499875161007, 39.487086056883697 ], [ -120.002371961662007, 39.495800071008297 ], [ -120.002272611088003, 39.502568256689898 ], [ -120.002267986888995, 39.502883276885399 ], [ -120.002246260966004, 39.504363339624796 ], [ -120.002230732794004, 39.505421185081197 ], [ -120.001804691338009, 39.534444949607803 ], [ -120.00174, 39.538852 ], [ -120.001717356499, 39.548725211720594 ], [ -120.001648319312011, 39.578827392908494 ], [ -120.001584097916009, 39.606829752403598 ], [ -120.001517666218007, 39.635795866150303 ], [ -120.001484414068997, 39.650294750900592 ], [ -120.001430866104002, 39.673643189982101 ], [ -120.001429430393998, 39.674269200449892 ], [ -120.001319008439339, 39.722416320206293 ], [ -120.015804, 39.722359 ], [ -120.015734, 39.708721 ], [ -120.126036, 39.708888 ], [ -120.147149, 39.707658 ], [ -120.22178, 39.707988 ], [ -120.249616, 39.708033 ], [ -120.251052, 39.708461 ], [ -120.28235, 39.70785 ], [ -120.306013, 39.708043 ], [ -120.359921, 39.708489 ], [ -120.446336, 39.708571 ], [ -120.465371, 39.70713 ], [ -120.465358, 39.706461 ], [ -120.487992, 39.706581 ], [ -120.557063, 39.7065 ], [ -120.569286, 39.706523 ], [ -120.575701, 39.706532 ], [ -120.603597, 39.706561 ], [ -120.654227, 39.706629 ], [ -120.654124, 39.706234 ], [ -120.654818, 39.705041 ], [ -120.65411, 39.703094 ], [ -120.6554, 39.699547 ], [ -120.65473, 39.694115 ], [ -120.655585, 39.69356 ], [ -120.658957, 39.688518 ], [ -120.66004, 39.686197 ], [ -120.666635, 39.682651 ], [ -120.671317, 39.682445 ], [ -120.672159, 39.681189 ], [ -120.673638, 39.681125 ], [ -120.6738, 39.679748 ], [ -120.676612, 39.679657 ], [ -120.679167, 39.676742 ], [ -120.679907, 39.67659 ], [ -120.68076, 39.676833 ], [ -120.683488, 39.680963 ], [ -120.688753, 39.684032 ], [ -120.689979, 39.686641 ], [ -120.693435, 39.689287 ], [ -120.695401, 39.691865 ], [ -120.698669, 39.692469 ], [ -120.69934, 39.691559 ], [ -120.701978, 39.691201 ], [ -120.703477, 39.692275 ], [ -120.70575, 39.695048 ], [ -120.705782, 39.696701 ], [ -120.707864, 39.699233 ], [ -120.710302, 39.699215 ], [ -120.712163, 39.700753 ], [ -120.712865, 39.703462 ], [ -120.714851, 39.704436 ], [ -120.716573, 39.706343 ], [ -120.718395, 39.706674 ], [ -120.734969, 39.708611 ], [ -120.735605, 39.710928 ], [ -120.738002, 39.710698 ], [ -120.74246, 39.712543 ], [ -120.745265, 39.715095 ], [ -120.747628, 39.716201 ], [ -120.749929, 39.719635 ], [ -120.757183, 39.719117 ], [ -120.759663, 39.717622 ], [ -120.77048, 39.717757 ], [ -120.7706, 39.715478 ], [ -120.771752, 39.713517 ], [ -120.775449, 39.712453 ], [ -120.777154, 39.712823 ], [ -120.778837, 39.712025 ], [ -120.782238, 39.711677 ], [ -120.782981, 39.709843 ], [ -120.786024, 39.709759 ], [ -120.790332, 39.710494 ], [ -120.792484, 39.709794 ], [ -120.791508, 39.713641 ], [ -120.791675, 39.715124 ], [ -120.793585, 39.717557 ], [ -120.794768, 39.7184 ], [ -120.797394, 39.718451 ], [ -120.804046, 39.720944 ], [ -120.808305, 39.719922 ], [ -120.809379, 39.721186 ], [ -120.809519, 39.723657 ], [ -120.811716, 39.725396 ], [ -120.813062, 39.734543 ], [ -120.814453, 39.736757 ], [ -120.813151, 39.74017 ], [ -120.813009, 39.742331 ], [ -120.81443, 39.745564 ], [ -120.81577, 39.746945 ], [ -120.819217, 39.744578 ], [ -120.819431, 39.743765 ], [ -120.824806, 39.742852 ], [ -120.826688, 39.742094 ], [ -120.828825, 39.746839 ], [ -120.830856, 39.74704 ], [ -120.835375, 39.746389 ], [ -120.837289, 39.745566 ], [ -120.839421, 39.746348 ], [ -120.840428, 39.747004 ], [ -120.841929, 39.750502 ], [ -120.843888, 39.751329 ], [ -120.844315, 39.756134 ], [ -120.848248, 39.757982 ], [ -120.851131, 39.758414 ], [ -120.85439, 39.759912 ], [ -120.856402, 39.763612 ], [ -120.858422, 39.766305 ], [ -120.85949, 39.770463 ], [ -120.862642, 39.770798 ], [ -120.865675, 39.773761 ], [ -120.870474, 39.775941 ], [ -120.870988, 39.776821 ], [ -120.873618, 39.775875 ], [ -120.875682, 39.772213 ], [ -120.88083, 39.771049 ], [ -120.885384, 39.767933 ], [ -120.887662, 39.767157 ], [ -120.888905, 39.765444 ], [ -120.890939, 39.76452 ], [ -120.892775, 39.761852 ], [ -120.895226, 39.759849 ], [ -120.898844, 39.759428 ], [ -120.901364, 39.76025 ], [ -120.903148, 39.759776 ], [ -120.905997, 39.757348 ], [ -120.911753, 39.757525 ], [ -120.913879, 39.757222 ], [ -120.916803, 39.75323 ], [ -120.922868, 39.750884 ], [ -120.925583, 39.744345 ], [ -120.934366, 39.738792 ], [ -120.93429, 39.726039 ], [ -120.93426, 39.701618 ], [ -120.93722, 39.700733 ], [ -120.937349, 39.698542 ], [ -120.935633, 39.697903 ], [ -120.937587, 39.695181 ], [ -120.93648, 39.693242 ], [ -120.93764, 39.69261 ], [ -120.939975, 39.692705 ], [ -120.938456, 39.690962 ], [ -120.939829, 39.690599 ], [ -120.939036, 39.689143 ], [ -120.940531, 39.688391 ], [ -120.94012, 39.686604 ], [ -120.941912, 39.685843 ], [ -120.94173, 39.684295 ], [ -120.944529, 39.680921 ], [ -120.947596, 39.679448 ], [ -120.952113, 39.676424 ], [ -120.949435, 39.672548 ], [ -120.950481, 39.671557 ], [ -120.954547, 39.668845 ], [ -120.957531, 39.669127 ], [ -120.957653, 39.66748 ], [ -120.963955, 39.665046 ], [ -120.964611, 39.66171 ], [ -120.969631, 39.656163 ], [ -120.973042, 39.654984 ], [ -120.975392, 39.653052 ], [ -120.975483, 39.651089 ], [ -120.978268, 39.649678 ], [ -120.978955, 39.648717 ], [ -120.981541, 39.649658 ], [ -120.983685, 39.648844 ], [ -120.984341, 39.647896 ], [ -120.984212, 39.646488 ], [ -120.986394, 39.644684 ], [ -120.990826, 39.643968 ], [ -120.991711, 39.642357 ], [ -120.993909, 39.641805 ], [ -120.994962, 39.640598 ], [ -120.998044, 39.640435 ], [ -121.000677, 39.638682 ], [ -121.002019, 39.63903 ], [ -121.004064, 39.63811 ], [ -121.006346, 39.639519 ], [ -121.009477, 39.639459 ], [ -121.050922, 39.613801 ], [ -121.052874, 39.612205 ], [ -121.076695, 39.597264 ], [ -121.079543, 39.585263 ], [ -121.107465, 39.585275 ], [ -121.10697, 39.567191 ], [ -121.116314, 39.567098 ], [ -121.116451, 39.563543 ], [ -121.141213, 39.562278 ], [ -121.140885, 39.55555 ], [ -121.149898, 39.555289 ], [ -121.149797, 39.544801 ], [ -121.149907, 39.526446 ], [ -121.158978, 39.526131 ], [ -121.15913, 39.523456 ], [ -121.159296, 39.519595 ], [ -121.166247, 39.519358 ], [ -121.185399, 39.519728 ], [ -121.185173, 39.526695 ], [ -121.210022, 39.52722 ], [ -121.23866, 39.526578 ], [ -121.240483, 39.526613 ], [ -121.240242, 39.513091 ], [ -121.247223, 39.51315 ], [ -121.258712, 39.512722 ], [ -121.274731, 39.512806 ], [ -121.277077, 39.512812 ], [ -121.276789, 39.520271 ], [ -121.295418, 39.519643 ], [ -121.303306, 39.519578 ], [ -121.305122, 39.519585 ], [ -121.305205, 39.513246 ], [ -121.305186, 39.512279 ], [ -121.305425, 39.497816 ], [ -121.307114, 39.497797 ], [ -121.3102, 39.497761 ], [ -121.310164, 39.486831 ], [ -121.31498, 39.486961 ], [ -121.314787, 39.475899 ], [ -121.324067, 39.475713 ], [ -121.324141, 39.468608 ], [ -121.329129, 39.468696 ], [ -121.332959, 39.468746 ], [ -121.333427, 39.468729 ], [ -121.333438, 39.46509 ], [ -121.338264, 39.465031 ], [ -121.33842, 39.454381 ], [ -121.342055, 39.454293 ], [ -121.345139, 39.452567 ], [ -121.345353, 39.44726 ], [ -121.346612, 39.445218 ], [ -121.34391, 39.442245 ], [ -121.34525, 39.439202 ], [ -121.339715, 39.430988 ], [ -121.335293, 39.430403 ], [ -121.334071, 39.425802 ], [ -121.336097, 39.424385 ], [ -121.338306, 39.424241 ], [ -121.341807, 39.422427 ], [ -121.342037, 39.420302 ], [ -121.345069, 39.419585 ], [ -121.351862, 39.415339 ], [ -121.352357, 39.413304 ], [ -121.354032, 39.411566 ], [ -121.359054, 39.409095 ], [ -121.363493, 39.403297 ], [ -121.36178, 39.402331 ], [ -121.36008, 39.400718 ], [ -121.364105, 39.384779 ], [ -121.36612, 39.382053 ], [ -121.368239, 39.376536 ], [ -121.370484, 39.376136 ], [ -121.372565, 39.372864 ], [ -121.371591, 39.370482 ], [ -121.372014, 39.367675 ], [ -121.372421, 39.3653 ], [ -121.375667, 39.364391 ], [ -121.377302, 39.363085 ], [ -121.379996, 39.362467 ], [ -121.38209, 39.363036 ], [ -121.38278, 39.361755 ], [ -121.386168, 39.359006 ], [ -121.387855, 39.355995 ], [ -121.391361, 39.35508 ], [ -121.393432, 39.353288 ], [ -121.400513, 39.349963 ], [ -121.402485, 39.349941 ], [ -121.403441, 39.348513 ], [ -121.402606, 39.347539 ], [ -121.40323, 39.345452 ], [ -121.406756, 39.344659 ], [ -121.407143, 39.343554 ], [ -121.405968, 39.340569 ], [ -121.407527, 39.339754 ], [ -121.411252, 39.33958 ], [ -121.414156, 39.340201 ], [ -121.419204, 39.33903 ], [ -121.422302, 39.336639 ], [ -121.425492, 39.335133 ], [ -121.430224, 39.335125 ], [ -121.431789, 39.336725 ], [ -121.434813, 39.337482 ], [ -121.437788, 39.336461 ], [ -121.438897, 39.3346 ], [ -121.443344, 39.331496 ], [ -121.445546, 39.331682 ], [ -121.447631, 39.330569 ], [ -121.448894, 39.331096 ], [ -121.450417, 39.333104 ], [ -121.453146, 39.334568 ], [ -121.454761, 39.33448 ], [ -121.457578, 39.335511 ], [ -121.458489, 39.335262 ], [ -121.459431, 39.332915 ], [ -121.463588, 39.330857 ], [ -121.466291, 39.332895 ], [ -121.469474, 39.333476 ], [ -121.470547, 39.332894 ], [ -121.474964, 39.333341 ], [ -121.477778, 39.328959 ], [ -121.482782, 39.326624 ], [ -121.484557, 39.324889 ], [ -121.484698, 39.321296 ], [ -121.482628, 39.320132 ], [ -121.483567, 39.31834 ], [ -121.486673, 39.317419 ], [ -121.489487, 39.319529 ], [ -121.494859, 39.319143 ], [ -121.495843, 39.318684 ], [ -121.497206, 39.314374 ], [ -121.49777, 39.314195 ], [ -121.499351, 39.316402 ], [ -121.501698, 39.316531 ], [ -121.504117, 39.317929 ], [ -121.509131, 39.317005 ], [ -121.517142, 39.317375 ], [ -121.519761, 39.319276 ], [ -121.521234, 39.319484 ], [ -121.527865, 39.317911 ], [ -121.530545, 39.318256 ], [ -121.536413, 39.31421 ], [ -121.540537, 39.314511 ], [ -121.545871, 39.312181 ], [ -121.547109, 39.312182 ], [ -121.548379, 39.309116 ], [ -121.551208, 39.307814 ], [ -121.556333, 39.30752 ], [ -121.559339, 39.306194 ], [ -121.56199, 39.306287 ], [ -121.56314, 39.305006 ], [ -121.567585, 39.307869 ], [ -121.571378, 39.308578 ], [ -121.574185, 39.310497 ], [ -121.576438, 39.310841 ], [ -121.578418, 39.310845 ], [ -121.580795, 39.309874 ], [ -121.584316, 39.311541 ], [ -121.586215, 39.311262 ], [ -121.588393, 39.308895 ], [ -121.593281, 39.307681 ], [ -121.60084, 39.310422 ], [ -121.602254, 39.311429 ], [ -121.603284, 39.312733 ], [ -121.603077, 39.316074 ], [ -121.604196, 39.31802 ], [ -121.611177, 39.31928 ], [ -121.612444, 39.31793 ], [ -121.61215, 39.316282 ], [ -121.616688, 39.312369 ], [ -121.618796, 39.305762 ], [ -121.620677, 39.302839 ], [ -121.618723, 39.301996 ], [ -121.62082, 39.298128 ], [ -121.62376, 39.295621 ], [ -121.626657, 39.296647 ], [ -121.631206, 39.30059 ], [ -121.632448, 39.303043 ], [ -121.63015, 39.305668 ], [ -121.659893, 39.305231 ], [ -121.672897, 39.305056 ], [ -121.67849, 39.304947 ], [ -121.687589, 39.30503 ], [ -121.7055, 39.304641 ], [ -121.79839, 39.303629 ], [ -121.908269, 39.303878 ], [ -121.908697, 39.30799 ], [ -121.907227, 39.315199 ], [ -121.905784, 39.316641 ], [ -121.905433, 39.322752 ], [ -121.904432, 39.32337 ], [ -121.90461, 39.325864 ], [ -121.903107, 39.327421 ], [ -121.903049, 39.330121 ], [ -121.900281, 39.333783 ], [ -121.900193, 39.335362 ], [ -121.895891, 39.33772 ], [ -121.894389, 39.341085 ], [ -121.894625, 39.342114 ], [ -121.897484, 39.344265 ], [ -121.899698, 39.354014 ], [ -121.898666, 39.355364 ], [ -121.898608, 39.357905 ], [ -121.896456, 39.358065 ], [ -121.895631, 39.359232 ], [ -121.893892, 39.35834 ], [ -121.892734, 39.361871 ], [ -121.893477, 39.362898 ], [ -121.891358, 39.364199 ], [ -121.891653, 39.365618 ], [ -121.889914, 39.368707 ], [ -121.888764, 39.369417 ], [ -121.887703, 39.37198 ], [ -121.884843, 39.372735 ], [ -121.884047, 39.373857 ], [ -121.890013, 39.383864 ], [ -122.009735, 39.383864 ], [ -122.007826, 39.385851 ], [ -122.007428, 39.388265 ], [ -122.007832, 39.39057 ], [ -122.007408, 39.392291 ], [ -122.004855, 39.395089 ], [ -122.003911, 39.396898 ], [ -122.00374, 39.403482 ], [ -122.006369, 39.405265 ], [ -122.009019, 39.413568 ], [ -122.009903, 39.413577 ], [ -122.028901, 39.413743 ], [ -122.080184, 39.414203 ], [ -122.136161, 39.414499 ], [ -122.136006, 39.385494 ], [ -122.192334, 39.385257 ], [ -122.203454, 39.385014 ], [ -122.256982, 39.384842 ], [ -122.262988, 39.384628 ], [ -122.417767, 39.383975 ], [ -122.507523, 39.384063 ], [ -122.523546, 39.384824 ], [ -122.528371, 39.384861 ], [ -122.530629, 39.384879 ], [ -122.548908, 39.385053 ], [ -122.674376, 39.384677 ], [ -122.689254, 39.383788 ], [ -122.693375, 39.383228 ], [ -122.704182, 39.382946 ], [ -122.739062, 39.383266 ], [ -122.739345, 39.407685 ], [ -122.741748, 39.43523 ], [ -122.73446, 39.447317 ], [ -122.732601, 39.450754 ], [ -122.731711, 39.482932 ], [ -122.732433, 39.494629 ], [ -122.733473, 39.497822 ], [ -122.734575, 39.499879 ], [ -122.736548, 39.50851 ], [ -122.735766, 39.544066 ], [ -122.735897, 39.547514 ], [ -122.735639, 39.580668 ], [ -122.753938, 39.581209 ], [ -122.772475, 39.579463 ], [ -122.790913, 39.579717 ], [ -122.814099, 39.5814 ], [ -122.819967, 39.580368 ], [ -122.828434, 39.579661 ], [ -122.875034, 39.58072 ], [ -122.876111, 39.580347 ], [ -122.885352, 39.580108 ], [ -122.88579, 39.565141 ], [ -122.889743, 39.536183 ], [ -122.89031, 39.529014 ], [ -122.901262, 39.529673 ], [ -122.921617, 39.52981 ], [ -122.936696, 39.530713 ], [ -122.936697, 39.516396 ], [ -122.996364, 39.517892 ], [ -123.014783, 39.519202 ], [ -123.025236, 39.518709 ], [ -123.024953, 39.511181 ], [ -123.025412, 39.511146 ], [ -123.04445, 39.5112 ], [ -123.044394, 39.503585 ], [ -123.045077, 39.503574 ], [ -123.054231, 39.503559 ], [ -123.063181, 39.503539 ], [ -123.063015, 39.452482 ], [ -123.073115, 39.452682 ], [ -123.070115, 39.436482 ], [ -123.074915, 39.436582 ], [ -123.074315, 39.421983 ], [ -123.075114, 39.407683 ], [ -123.056314, 39.407583 ], [ -123.057113, 39.378684 ], [ -123.047513, 39.378584 ], [ -123.048613, 39.364084 ], [ -123.037914, 39.363885 ], [ -123.037712, 39.336185 ], [ -123.028712, 39.336585 ], [ -123.028712, 39.321785 ], [ -123.019711, 39.321785 ], [ -123.019616, 39.279966 ], [ -123.019612, 39.277986 ], [ -123.00451, 39.278187 ], [ -123.00361, 39.257387 ], [ -123.00111, 39.256779 ], [ -122.994484, 39.256757 ], [ -122.994276, 39.24989 ], [ -122.994688, 39.24944 ], [ -122.994496, 39.24336 ], [ -122.994839, 39.235924 ], [ -123.01271, 39.236188 ], [ -123.01251, 39.220989 ], [ -123.02081, 39.220689 ], [ -123.021123, 39.214609 ], [ -123.02111, 39.213689 ], [ -123.02411, 39.213689 ], [ -123.02431, 39.207089 ], [ -123.02881, 39.206789 ], [ -123.029711, 39.199591 ], [ -123.034111, 39.19969 ], [ -123.034811, 39.192391 ], [ -123.04011, 39.19249 ], [ -123.040183, 39.191428 ], [ -123.040911, 39.180691 ], [ -123.045411, 39.18059 ], [ -123.045811, 39.173492 ], [ -123.077812, 39.173791 ], [ -123.078026, 39.151772 ], [ -123.078112, 39.13874 ], [ -123.087512, 39.138392 ], [ -123.087213, 39.124898 ], [ -123.087424, 39.117171 ], [ -123.087592, 39.110077 ], [ -123.085212, 39.110093 ], [ -123.085012, 39.095294 ], [ -123.094212, 39.095294 ], [ -123.094207, 39.080524 ], [ -123.092914, 39.080533 ], [ -123.093013, 39.071994 ], [ -123.083712, 39.071794 ], [ -123.083812, 39.064494 ], [ -123.065114, 39.064393 ], [ -123.065149, 39.059183 ], [ -123.065157, 39.05797 ], [ -123.065188, 39.053187 ], [ -123.065212, 39.049995 ], [ -123.056111, 39.049895 ], [ -123.056212, 39.021096 ], [ -123.047011, 39.020896 ], [ -123.046811, 39.013796 ], [ -123.037511, 39.013697 ], [ -123.03731, 39.006497 ], [ -123.028011, 39.006496 ], [ -123.028035, 38.996593 ], [ -123.018626, 38.996613 ], [ -123.018579, 38.992956 ], [ -123.009265, 38.993177 ], [ -123.009254, 38.997164 ], [ -122.98664, 38.997283 ], [ -122.986663, 38.988898 ], [ -122.986683, 38.983009 ], [ -122.977429, 38.9829 ], [ -122.977595, 38.955224 ], [ -122.977712, 38.946685 ], [ -122.968286, 38.946506 ], [ -122.968358, 38.940166 ], [ -122.969919, 38.932663 ], [ -122.960186, 38.932469 ], [ -122.961888, 38.925511 ], [ -122.949067, 38.925442 ], [ -122.949674, 38.91586 ], [ -122.950047, 38.909748 ], [ -122.948935, 38.902596 ], [ -122.948865, 38.90022 ], [ -122.93369, 38.90142 ], [ -122.911386, 38.901529 ], [ -122.911565, 38.898441 ], [ -122.911355, 38.895171 ], [ -122.89389, 38.895524 ], [ -122.894633, 38.880832 ], [ -122.878801, 38.880879 ], [ -122.8757, 38.880837 ], [ -122.876495, 38.87313 ], [ -122.871721, 38.873019 ], [ -122.85776, 38.873261 ], [ -122.858487, 38.865849 ], [ -122.839994, 38.866024 ], [ -122.840099, 38.857993 ], [ -122.821388, 38.85792 ], [ -122.821592, 38.85014 ], [ -122.830237, 38.85012 ], [ -122.994217, 38.851325 ], [ -122.99888, 38.851169 ], [ -123.006918, 38.851247 ], [ -123.026122, 38.852837 ], [ -123.027674, 38.852916 ], [ -123.029253, 38.852831 ], [ -123.080997, 38.852438 ], [ -123.081082, 38.847283 ], [ -123.08123, 38.838406 ], [ -123.118025, 38.839551 ], [ -123.126114, 38.839318 ], [ -123.136636, 38.839448 ], [ -123.136253, 38.809136 ], [ -123.142279, 38.808875 ], [ -123.214604, 38.808871 ], [ -123.238964, 38.808557 ], [ -123.26871, 38.808369 ], [ -123.271759, 38.808399 ], [ -123.28168, 38.807503 ], [ -123.368394, 38.80664 ], [ -123.368236, 38.777066 ], [ -123.376089, 38.777235 ], [ -123.38526, 38.777031 ], [ -123.431075, 38.776619 ], [ -123.497042, 38.778604 ], [ -123.499155, 38.778327 ], [ -123.498956, 38.778127 ], [ -123.499582, 38.774093 ], [ -123.505233, 38.774277 ], [ -123.507041, 38.773532 ], [ -123.509462, 38.767856 ], [ -123.515861, 38.768158 ], [ -123.518147, 38.763559 ], [ -123.518722, 38.759975 ], [ -123.519427, 38.758853 ], [ -123.520961, 38.758575 ], [ -123.525627, 38.762911 ], [ -123.52851, 38.764409 ], [ -123.531282, 38.766925 ], [ -123.533176, 38.768434 ], [ -123.533223, 38.76844 ], [ -123.533391, 38.768396 ], [ -123.533535, 38.768408 ], [ -123.534468052362001, 38.769347121360695 ], [ -123.541837, 38.776764 ], [ -123.549322505481996, 38.7820833019886 ], [ -123.563382585313008, 38.792074585914797 ], [ -123.563689650280011, 38.792292790456294 ], [ -123.569156866872007, 38.796177868913297 ], [ -123.569608667583012, 38.796498924642101 ], [ -123.571102479019999, 38.797560447363296 ], [ -123.571987, 38.798189 ], [ -123.574156493301004, 38.799469908104996 ], [ -123.574805619093013, 38.799853163719298 ], [ -123.576860880618, 38.801066627316402 ], [ -123.577683767917009, 38.801552474868799 ], [ -123.577859738390003, 38.801656371020599 ], [ -123.579856, 38.802835 ], [ -123.582782971138002, 38.802844870227602 ], [ -123.58638, 38.802857 ], [ -123.594999975666013, 38.809868320428002 ], [ -123.600221, 38.814115 ], [ -123.601569, 38.81899 ], [ -123.601847409042009, 38.819270414656394 ], [ -123.604768974197015, 38.822213026305896 ], [ -123.605317, 38.822765 ], [ -123.607012504349996, 38.823838683726997 ], [ -123.607744597540005, 38.824302284156396 ], [ -123.609757022926004, 38.8255766591761 ], [ -123.61147418019101, 38.826664054682603 ], [ -123.638637, 38.843865 ], [ -123.63882276752301, 38.843871439082299 ], [ -123.640469443474004, 38.8439285162383 ], [ -123.640889308397007, 38.843943069615193 ], [ -123.642676, 38.844005 ], [ -123.645169027695999, 38.844781325967006 ], [ -123.646773846686017, 38.845281064760997 ], [ -123.647387, 38.845472 ], [ -123.65097054031601, 38.852238021198403 ], [ -123.650981282334001, 38.852258303018701 ], [ -123.652212, 38.854582 ], [ -123.652405986453005, 38.855445411523 ], [ -123.652505255907002, 38.855887248512595 ], [ -123.652632411493002, 38.856453203490595 ], [ -123.652894749831006, 38.857620841435796 ], [ -123.653386705974, 38.859810481986294 ], [ -123.65347255799, 38.860192599491498 ], [ -123.653980302858002, 38.862452513848901 ], [ -123.654696, 38.865638 ], [ -123.655024204157002, 38.866077156280795 ], [ -123.655951510283003, 38.867317945895302 ], [ -123.657681490884002, 38.869632760715199 ], [ -123.658294379179011, 38.870452840956098 ], [ -123.658909359947003, 38.871275721047596 ], [ -123.659846, 38.872529 ], [ -123.688099, 38.893594 ], [ -123.704147458238012, 38.907636490350797 ], [ -123.71054, 38.91323 ], [ -123.725367, 38.917438 ], [ -123.725575642804017, 38.918550085506297 ], [ -123.72763, 38.9295 ], [ -123.727482541171, 38.930270037854299 ], [ -123.727349459007002, 38.930965 ], [ -123.727107901515012, 38.932226426079197 ], [ -123.726955422694999, 38.9330226785954 ], [ -123.726705174505014, 38.934329487967496 ], [ -123.726618211338007, 38.934783614252197 ], [ -123.726315, 38.936367 ], [ -123.738885801716009, 38.954119503434796 ], [ -123.733829907127003, 38.9548571592101 ], [ -123.732892, 38.954994 ], [ -123.729053, 38.956667 ], [ -123.721347, 38.963879 ], [ -123.718554605868007, 38.967558290052494 ], [ -123.718527694920013, 38.9675937482208 ], [ -123.713096442590015, 38.9747500276439 ], [ -123.711149, 38.977316 ], [ -123.709041893093996, 38.981321262863304 ], [ -123.708326887634001, 38.982680370372798 ], [ -123.705024953068019, 38.988956803645799 ], [ -123.703520383585001, 38.9918167421989 ], [ -123.702453089108005, 38.993845493053598 ], [ -123.699926788186005, 38.998647574636095 ], [ -123.6969, 39.004401 ], [ -123.695360110156003, 39.008623697930297 ], [ -123.695026615819003, 39.009538208699496 ], [ -123.69125999370101, 39.019867069221796 ], [ -123.691235425634005, 39.0199344399648 ], [ -123.69074, 39.021293 ], [ -123.690622096411005, 39.023096102323493 ], [ -123.690095, 39.031157 ], [ -123.690831828838014, 39.0361413408666 ], [ -123.691851341333006, 39.0430379191979 ], [ -123.692332626500999, 39.046293613339998 ], [ -123.692799923487996, 39.049454683254496 ], [ -123.693317730183011, 39.052957430352599 ], [ -123.693969, 39.057363 ], [ -123.694849882149001, 39.059678654720699 ], [ -123.695093612790004, 39.060319371541702 ], [ -123.696235827643008, 39.063322015221303 ], [ -123.703344910380011, 39.082010305158498 ], [ -123.704212913087005, 39.084292102523499 ], [ -123.706241898011015, 39.0896258790385 ], [ -123.706932409320999, 39.091441088684093 ], [ -123.707386489262007, 39.092634769769099 ], [ -123.709452982558005, 39.098067147938998 ], [ -123.711076486555015, 39.102335 ], [ -123.713392, 39.108422 ], [ -123.71382382857901, 39.109321798117705 ], [ -123.720002550901995, 39.122196357573799 ], [ -123.720322417613005, 39.122862861548498 ], [ -123.721505, 39.125327 ], [ -123.725047998882005, 39.128842010394202 ], [ -123.725562071625006, 39.129352022137198 ], [ -123.727549340354003, 39.131323592117596 ], [ -123.731025242114015, 39.1347720354334 ], [ -123.735936, 39.139644 ], [ -123.736747460559002, 39.141202890847197 ], [ -123.737913, 39.143442 ], [ -123.738110923876008, 39.144427162878202 ], [ -123.738227278896005, 39.145006318098005 ], [ -123.742221, 39.164885 ], [ -123.743510429832014, 39.166718023089096 ], [ -123.744589255403, 39.168251656118301 ], [ -123.745471111015007, 39.169505281293503 ], [ -123.746634685944997, 39.171159392015596 ], [ -123.747271438702001, 39.172064584742799 ], [ -123.757597787527004, 39.186744279091094 ], [ -123.76101, 39.191595 ], [ -123.761776319509011, 39.191918735059801 ], [ -123.765891, 39.193657 ], [ -123.769823619302997, 39.201613785249997 ], [ -123.770402383787015, 39.2027847871585 ], [ -123.771816151105, 39.205645232596794 ], [ -123.772014785836006, 39.206047126036296 ], [ -123.772378380204003, 39.206782778812297 ], [ -123.773300344860999, 39.208648170352497 ], [ -123.773374326174007, 39.208797855175696 ], [ -123.773939454784013, 39.209941267909798 ], [ -123.774296274151013, 39.210663212969095 ], [ -123.774412564095996, 39.210898499948399 ], [ -123.774998, 39.212083 ], [ -123.775210109001009, 39.214332160888596 ], [ -123.775984993590001, 39.222548880129395 ], [ -123.77632076319, 39.226109312961498 ], [ -123.776777875790003, 39.230956442391701 ], [ -123.776786522118002, 39.231048126310803 ], [ -123.776822668829013, 39.231431418704801 ], [ -123.777303294660015, 39.236527877683699 ], [ -123.777368, 39.237214 ], [ -123.777859338827, 39.238479716828095 ], [ -123.778995770471013, 39.241407229528697 ], [ -123.779631012625003, 39.2430436495303 ], [ -123.780090324899007, 39.244226864131697 ], [ -123.780479144370005, 39.245228485254501 ], [ -123.780697471574001, 39.245790908579202 ], [ -123.781832590226003, 39.248715038935799 ], [ -123.782083125383011, 39.249360431782598 ], [ -123.782451814496014, 39.250310195954896 ], [ -123.784319849115008, 39.255122359625602 ], [ -123.785708575534002, 39.258699798048902 ], [ -123.786008472456004, 39.259472349615898 ], [ -123.786436122303002, 39.260574 ], [ -123.787893, 39.264327 ], [ -123.788455631321014, 39.264683295992299 ], [ -123.796450555904002, 39.269746219939798 ], [ -123.798991, 39.271355 ], [ -123.799627072827008, 39.272326199523199 ], [ -123.80042878668101, 39.273550311102703 ], [ -123.800596699956003, 39.273806692582504 ], [ -123.800769264959001, 39.274070176639498 ], [ -123.801814977513004, 39.275666842132701 ], [ -123.803848, 39.278771 ], [ -123.802319843244007, 39.282249 ], [ -123.801757, 39.28353 ], [ -123.801893087934005, 39.284374588031802 ], [ -123.802650013634008, 39.2890722152829 ], [ -123.803081, 39.291747 ], [ -123.806275037511, 39.299852456617302 ], [ -123.807721577569012, 39.303523317601901 ], [ -123.810226045944006, 39.309878865930195 ], [ -123.811387, 39.312825 ], [ -123.809800309798007, 39.319828887187903 ], [ -123.808772, 39.324368 ], [ -123.81051702604401, 39.327297419084701 ], [ -123.812166021557999, 39.330065629303199 ], [ -123.812677111167005, 39.330923608277601 ], [ -123.813166946001999, 39.331745906327896 ], [ -123.813355393197014, 39.332062257371604 ], [ -123.816483208771999, 39.337313 ], [ -123.816843200975995, 39.337917327962394 ], [ -123.817195266078016, 39.3385083484985 ], [ -123.817212509165998, 39.338537294902892 ], [ -123.817369, 39.3388 ], [ -123.817827144940011, 39.339291272044399 ], [ -123.819182241432003, 39.340744351552104 ], [ -123.821145180645004, 39.342849225089601 ], [ -123.821192862543995, 39.342900354725302 ], [ -123.822085, 39.343857 ], [ -123.823920809972009, 39.353447212473199 ], [ -123.825291954254013, 39.360610026274699 ], [ -123.825331, 39.360814 ], [ -123.825860795701999, 39.365104530117094 ], [ -123.826306, 39.36871 ], [ -123.826225691716004, 39.368937489705594 ], [ -123.823406416953006, 39.376923664411699 ], [ -123.822325, 39.379987 ], [ -123.821909100333997, 39.405455632046596 ], [ -123.821887, 39.406809 ], [ -123.820764528403998, 39.413005286516196 ], [ -123.820012976287003, 39.417154017101893 ], [ -123.819835502215994, 39.418133712441801 ], [ -123.818827080757004, 39.423700417480006 ], [ -123.818718296635012, 39.424300929414898 ], [ -123.818051929649016, 39.427979419618403 ], [ -123.817138551609006, 39.433021464374896 ], [ -123.816137403734004, 39.438548017651094 ], [ -123.815055788684006, 39.444518767179005 ], [ -123.81469, 39.446538 ], [ -123.810399208074017, 39.456825675334493 ], [ -123.810113497955001, 39.457510698751101 ], [ -123.809587214131994, 39.458772525752096 ], [ -123.808891720147003, 39.460440053899696 ], [ -123.80429955305901, 39.471450311422096 ], [ -123.798015399785996, 39.486517303656498 ], [ -123.796587716399003, 39.489940341507101 ], [ -123.795639, 39.492215 ], [ -123.795477492757001, 39.492457267906104 ], [ -123.792184513647001, 39.497396880130097 ], [ -123.789676215536005, 39.501159436647804 ], [ -123.789434170017998, 39.501522515477703 ], [ -123.787257048369014, 39.504788292864497 ], [ -123.786566579985006, 39.505824025541898 ], [ -123.786024973270997, 39.506636459224502 ], [ -123.78417, 39.509419 ], [ -123.782809632003008, 39.512322996756005 ], [ -123.778521, 39.521478 ], [ -123.77755817681701, 39.523981771892096 ], [ -123.776558184456007, 39.526582200308397 ], [ -123.776115284799005, 39.5277339379602 ], [ -123.770002563743006, 39.543629752925092 ], [ -123.76671934574, 39.552167591540396 ], [ -123.766475, 39.552803 ], [ -123.766518537127013, 39.553220541783595 ], [ -123.766558682199999, 39.553605552144198 ], [ -123.766618042369018, 39.554174844437398 ], [ -123.76721, 39.559852 ], [ -123.767606096017005, 39.560728205868003 ], [ -123.768042632098997, 39.561693869392997 ], [ -123.768322726208012, 39.562313466891794 ], [ -123.770532247980015, 39.567201160424496 ], [ -123.777634120072008, 39.582911245174294 ], [ -123.778426072418, 39.584663126692398 ], [ -123.787417, 39.604552 ], [ -123.785154838644999, 39.607448990231497 ], [ -123.785003856325005, 39.607642342622299 ], [ -123.78354, 39.609517 ], [ -123.782684732099995, 39.617921516829 ], [ -123.782554996505993, 39.619196398041005 ], [ -123.78247, 39.620031638752003 ], [ -123.78243679807801, 39.620357906248096 ] ], [ [ -122.378193, 42.009518 ], [ -122.368057762197012, 42.009317503675497 ], [ -122.289527, 42.007764 ], [ -122.289533096525005, 42.007764120602097 ], [ -122.378193, 42.009518 ] ], [ [ -122.284857996628006, 42.0076982393891 ], [ -122.261127, 42.007364 ], [ -122.289527, 42.007764 ], [ -122.284857996628006, 42.0076982393891 ] ], [ [ -122.188588293873011, 42.007562429510998 ], [ -122.186265308521001, 42.007568784033602 ], [ -122.161328, 42.007637 ], [ -122.261127, 42.007364 ], [ -122.188588293873011, 42.007562429510998 ] ], [ [ -121.683128426638007, 42.000482260546399 ], [ -121.675348, 42.000351 ], [ -121.689159, 42.000584 ], [ -121.683128426638007, 42.000482260546399 ] ], [ [ -121.474095021808367, 41.997466160400478 ], [ -121.519107311254004, 41.997970204266693 ], [ -121.52025, 41.997983 ], [ -121.474095021808367, 41.997466160400478 ] ], [ [ -124.001188, 41.996146 ], [ -123.967152356417003, 41.996139885080197 ], [ -123.834208, 41.996116 ], [ -124.001188, 41.996146 ] ], [ [ -123.145959, 42.009247 ], [ -123.103003595445003, 42.0066150695788 ], [ -123.083956, 42.005448 ], [ -123.145959, 42.009247 ] ], [ [ -122.981538959081163, 42.00307112818696 ], [ -122.941597, 42.003085 ], [ -122.961419008339007, 42.003078115831094 ], [ -122.981538959081163, 42.00307112818696 ] ], [ [ -122.876148, 42.003247 ], [ -122.873647049446021, 42.003274091329558 ], [ -122.875459853267003, 42.003254454289696 ], [ -122.876148, 42.003247 ] ], [ [ -122.634739, 42.004858 ], [ -122.501135, 42.00846 ], [ -122.615298231128008, 42.005382128390494 ], [ -122.634739, 42.004858 ] ], [ [ -123.631610621450008, 41.998814742546699 ], [ -123.656998, 41.995137 ], [ -123.624554, 41.999837 ], [ -123.631610621450008, 41.998814742546699 ] ], [ [ -123.529949502732009, 42.000909042588802 ], [ -123.55256, 42.000246 ], [ -123.525245, 42.001047 ], [ -123.529949502732009, 42.000909042588802 ] ], [ [ -121.247616, 41.997054 ], [ -121.251099, 41.99757 ], [ -121.250244422819009, 41.9974433959731 ], [ -121.247616, 41.997054 ] ], [ [ -120.812279, 41.994183 ], [ -120.879481, 41.993781 ], [ -120.819515195690002, 41.994139713331897 ], [ -120.812279, 41.994183 ] ], [ [ -120.760746364989004, 41.993962216769297 ], [ -120.693941, 41.993676 ], [ -120.812279, 41.994183 ], [ -120.760746364989004, 41.993962216769297 ] ], [ [ -120.328587085363012, 41.993131778838595 ], [ -120.326005, 41.993122 ], [ -120.328539342369012, 41.993131598027006 ], [ -120.413996082414016, 41.993455238630695 ], [ -120.501069, 41.993785 ], [ -120.488221960818009, 41.993736345867902 ], [ -120.328587085363012, 41.993131778838595 ] ], [ [ -120.286424, 41.993058 ], [ -120.325751034620012, 41.993121589353898 ], [ -120.326005, 41.993122 ], [ -120.286424, 41.993058 ] ], [ [ -120.272208750126012, 41.993265411070901 ], [ -120.181563, 41.994588 ], [ -120.276927962574007, 41.993196554250495 ], [ -120.286424, 41.993058 ], [ -120.272208750126012, 41.993265411070901 ] ], [ [ -120.160711194298003, 41.994651651117401 ], [ -120.159459209017001, 41.994655472861304 ], [ -120.047458000663951, 41.994997361816196 ], [ -120.158742355640015, 41.994657661090002 ], [ -120.181563, 41.994588 ], [ -120.160711194298003, 41.994651651117401 ] ], [ [ -120.001058, 41.995139 ], [ -120.047125735576003, 41.994998376071003 ], [ -120.047458000663951, 41.994997361816196 ], [ -120.001058, 41.995139 ] ], [ [ -118.829630102752006, 41.992625689429694 ], [ -119.001022, 41.993793 ], [ -118.795612, 41.992394 ], [ -118.829630102752006, 41.992625689429694 ] ], [ [ -118.639886664659002, 41.993049281825598 ], [ -118.639172420853001, 41.993065144179198 ], [ -118.601806, 41.993895 ], [ -118.642498671751355, 41.992991272810059 ], [ -118.640089784964999, 41.993044770808396 ], [ -118.639886664659002, 41.993049281825598 ] ], [ [ -118.541936510357019, 41.994816169580901 ], [ -118.501002, 41.995446 ], [ -118.601806, 41.993895 ], [ -118.541936510357019, 41.994816169580901 ] ], [ [ -117.592577391825799, 41.998672542184543 ], [ -117.613207836252002, 41.998536428685505 ], [ -117.623731, 41.998467 ], [ -117.617188034099996, 41.998510168531098 ], [ -117.592577391825799, 41.998672542184543 ] ], [ [ -119.999866, 41.183974 ], [ -119.999584837735014, 41.011915423499097 ], [ -119.999358, 40.873101 ], [ -119.999866, 41.183974 ] ], [ [ -119.999471, 41.499894 ], [ -119.999566798130019, 41.423274898472002 ], [ -119.999866, 41.183974 ], [ -119.999471, 41.499894 ] ], [ [ -119.998759067763203, 41.570950336624229 ], [ -119.998890665307997, 41.55781588512 ], [ -119.999471, 41.499894 ], [ -119.998759067763203, 41.570950336624229 ] ], [ [ -119.995926, 40.499901 ], [ -119.99605148742701, 40.402326032075493 ], [ -119.996155, 40.321838 ], [ -119.995926, 40.499901 ] ], [ [ -119.996630052360644, 40.197803261248964 ], [ -119.996899439074014, 40.158841525960497 ], [ -119.997124, 40.126363 ], [ -119.996630052360644, 40.197803261248964 ] ], [ [ -119.998479448839518, 39.914172542837164 ], [ -119.999733, 39.851406 ], [ -119.998682316462009, 39.904014760894 ], [ -119.998479448839518, 39.914172542837164 ] ], [ [ -120.000607, 39.780779 ], [ -120.000264524780007, 39.808454054179897 ], [ -119.999733, 39.851406 ], [ -120.000607, 39.780779 ] ], [ [ -120.001151854493003, 39.734190971706795 ], [ -120.000502, 39.779956 ], [ -120.001319, 39.72242 ], [ -120.001154367553013, 39.734013993191894 ], [ -120.001151854493003, 39.734190971706795 ] ], [ [ -119.999276, 41.874891 ], [ -119.998501368188002, 41.776985841378696 ], [ -119.998287, 41.749892 ], [ -119.999276, 41.874891 ] ], [ [ -117.026195, 42.166404 ], [ -117.026140287754004, 42.324563010477497 ], [ -117.026129, 42.357193 ], [ -117.026195, 42.166404 ] ], [ [ -117.026727388135996, 43.468151996696903 ], [ -117.026719331236009, 43.420805024449002 ], [ -117.026698521567553, 43.29851545751017 ], [ -117.026701376309006, 43.315291559154893 ], [ -117.026722564577, 43.439805994118203 ], [ -117.026727388135996, 43.468151996696903 ] ], [ [ -117.026743821013, 43.564721021131199 ], [ -117.026743178443397, 43.560944913072191 ], [ -117.026745350468005, 43.573708979009794 ], [ -117.026746, 43.577526 ], [ -117.026743821013, 43.564721021131199 ] ], [ [ -117.027001, 43.621032 ], [ -117.026912153245007, 43.624593274093399 ], [ -117.026905, 43.62488 ], [ -117.027001, 43.621032 ] ], [ [ -116.943132, 44.09406 ], [ -116.940274509534007, 44.095615247312296 ], [ -116.937835, 44.096943 ], [ -116.943132, 44.09406 ] ], [ [ -116.974572522700001, 44.058953052806395 ], [ -116.974016, 44.053663 ], [ -116.975064145055626, 44.06362619232636 ], [ -116.974572522700001, 44.058953052806395 ] ], [ [ -116.938325789680079, 44.00459526574069 ], [ -116.939471689455004, 44.000180839557004 ], [ -116.942346398517003, 43.989106405966503 ], [ -116.939130270415006, 44.001496110910594 ], [ -116.938325789680079, 44.00459526574069 ] ], [ [ -116.979710736066011, 43.879975432096096 ], [ -116.976024, 43.895548 ], [ -116.976236402699996, 43.894650822820601 ], [ -116.980611773826013, 43.876169498760696 ], [ -116.982347, 43.86884 ], [ -116.979710736066011, 43.879975432096096 ] ], [ [ -117.016613011344006, 43.853931031277696 ], [ -117.026143013478006, 43.834479869212394 ], [ -117.013953935651003, 43.859358324107099 ], [ -117.016613011344006, 43.853931031277696 ] ], [ [ -117.026675678494541, 43.814319541029192 ], [ -117.026695186249, 43.8172287451534 ], [ -117.026779756362998, 43.829840741221595 ], [ -117.026675678494541, 43.814319541029192 ] ], [ [ -117.026651, 43.733935 ], [ -117.026640769601997, 43.778569021034194 ], [ -117.026634, 43.808104 ], [ -117.026651, 43.733935 ] ] ] } }
]
}
